SEARCHVAL,BLK_NO,ROAD_NAME,BUILDING,ADDRESS,POSTAL,X,Y,LATITUDE,LONGITUDE,BLKSTREET
FLO RESIDENCE,1,PUNGGOL_FIELD_WALK,FLO RESIDENCE,1 PUNGGOL FIELD WALK FLO RESIDENCE SINGAPORE 828739,828739,36871.84314,41529.00766,1.391846751,103.913039,1_PUNGGOL_FIELD_WALK
ONE PUNGGOL,1,PUNGGOL_DRIVE,ONE PUNGGOL,1 PUNGGOL DRIVE ONE PUNGGOL SINGAPORE 828629,828629,35986.92226,43383.41633,1.4086176,103.9050878,1_PUNGGOL_DRIVE
FLO RESIDENCE,3,PUNGGOL_FIELD_WALK,FLO RESIDENCE,3 PUNGGOL FIELD WALK FLO RESIDENCE SINGAPORE 828740,828740,36867.78321,41559.00847,1.392118069,103.9130026,3_PUNGGOL_FIELD_WALK
FLO RESIDENCE,5,PUNGGOL_FIELD_WALK,FLO RESIDENCE,5 PUNGGOL FIELD WALK FLO RESIDENCE SINGAPORE 828741,828741,36885.96839,41582.1412,1.392327267,103.913166,5_PUNGGOL_FIELD_WALK
FLO RESIDENCE,7,PUNGGOL_FIELD_WALK,FLO RESIDENCE,7 PUNGGOL FIELD WALK FLO RESIDENCE SINGAPORE 828742,828742,36907.72538,41608.11198,1.39256213,103.9133615,7_PUNGGOL_FIELD_WALK
FLO RESIDENCE,9,PUNGGOL_FIELD_WALK,FLO RESIDENCE,9 PUNGGOL FIELD WALK FLO RESIDENCE SINGAPORE 828743,828743,36963.06936,41595.14647,1.392444858,103.9138588,9_PUNGGOL_FIELD_WALK
FLO RESIDENCE,11,PUNGGOL_FIELD_WALK,FLO RESIDENCE,11 PUNGGOL FIELD WALK FLO RESIDENCE SINGAPORE 828744,828744,36967.14304,41565.09442,1.392173077,103.9138954,11_PUNGGOL_FIELD_WALK
FLO RESIDENCE,13,PUNGGOL_FIELD_WALK,FLO RESIDENCE,13 PUNGGOL FIELD WALK FLO RESIDENCE SINGAPORE 828745,828745,36951.11917,41544.77295,1.391989302,103.9137514,13_PUNGGOL_FIELD_WALK
WATERWOODS,15,PUNGGOL_FIELD_WALK,WATERWOODS,15 PUNGGOL FIELD WALK WATERWOODS SINGAPORE 828746,828746,36774.60573,41427.4761,1.390928566,103.9121653,15_PUNGGOL_FIELD_WALK
WATERWOODS,17,PUNGGOL_FIELD_WALK,WATERWOODS,17 PUNGGOL FIELD WALK WATERWOODS SINGAPORE 828747,828747,36806.42961,41398.095,1.390662845,103.9124512,17_PUNGGOL_FIELD_WALK
WATERWOODS,19,PUNGGOL_FIELD_WALK,WATERWOODS,19 PUNGGOL FIELD WALK WATERWOODS SINGAPORE 828748,828748,36839.96702,41397.18351,1.390654592,103.9127526,19_PUNGGOL_FIELD_WALK
WATERWOODS,21,PUNGGOL_FIELD_WALK,WATERWOODS,21 PUNGGOL FIELD WALK WATERWOODS SINGAPORE 828749,828749,36861.57216,41430.6938,1.39095764,103.9129467,21_PUNGGOL_FIELD_WALK
WATERWOODS,23,PUNGGOL_FIELD_WALK,WATERWOODS,23 PUNGGOL FIELD WALK WATERWOODS SINGAPORE 828750,828750,36801.63483,41461.26474,1.39123413,103.9124081,23_PUNGGOL_FIELD_WALK
WATERWOODS,25,PUNGGOL_FIELD_WALK,WATERWOODS,25 PUNGGOL FIELD WALK WATERWOODS SINGAPORE 828751,828751,36833.49222,41461.54974,1.391236698,103.9126944,25_PUNGGOL_FIELD_WALK
PRIVÃ‰,31,PUNGGOL_FIELD,PRIVÃ‰,31 PUNGGOL FIELD PRIVÃ‰ SINGAPORE 828816,828816,35864.50521,42545.16747,1.401036819,103.9039876,31_PUNGGOL_FIELD
PRIVÃ‰,33,PUNGGOL_FIELD,PRIVÃ‰,33 PUNGGOL FIELD PRIVÃ‰ SINGAPORE 828817,828817,35903.5428,42595.08951,1.401488285,103.9043384,33_PUNGGOL_FIELD
PRIVÃ‰,35,PUNGGOL_FIELD,PRIVÃ‰,35 PUNGGOL FIELD PRIVÃ‰ SINGAPORE 828818,828818,35969.63449,42560.406,1.401174602,103.9049323,35_PUNGGOL_FIELD
PRIVÃ‰,37,PUNGGOL_FIELD,PRIVÃ‰,37 PUNGGOL FIELD PRIVÃ‰ SINGAPORE 828809,828809,35943.76108,42505.30474,1.400676293,103.9046998,37_PUNGGOL_FIELD
PRIVÃ‰,39,PUNGGOL_FIELD,PRIVÃ‰,39 PUNGGOL FIELD PRIVÃ‰ SINGAPORE 828810,828810,35913.51973,42552.85814,1.401106357,103.904428,39_PUNGGOL_FIELD
WATERTOWN,61,PUNGGOL_CENTRAL,WATERTOWN,61 PUNGGOL CENTRAL WATERTOWN SINGAPORE 828840,828840,35758.98902,43224.06106,1.407176512,103.9030396,61_PUNGGOL_CENTRAL
WATERTOWN,63,PUNGGOL_CENTRAL,WATERTOWN,63 PUNGGOL CENTRAL WATERTOWN SINGAPORE 828841,828841,35744.37488,43197.6007,1.406937218,103.9029083,63_PUNGGOL_CENTRAL
WATERTOWN,65,PUNGGOL_CENTRAL,WATERTOWN,65 PUNGGOL CENTRAL WATERTOWN SINGAPORE 828842,828842,35729.40958,43170.56797,1.406692748,103.9027738,65_PUNGGOL_CENTRAL
WATERTOWN,67,PUNGGOL_CENTRAL,WATERTOWN,67 PUNGGOL CENTRAL WATERTOWN SINGAPORE 828843,828843,35683.21349,43157.81549,1.406577432,103.9023587,67_PUNGGOL_CENTRAL
WATERTOWN,69,PUNGGOL_CENTRAL,WATERTOWN,69 PUNGGOL CENTRAL WATERTOWN SINGAPORE 828754,828754,35716.83656,43143.94715,1.406452003,103.9026608,69_PUNGGOL_CENTRAL
WATERTOWN,71,PUNGGOL_CENTRAL,WATERTOWN,71 PUNGGOL CENTRAL WATERTOWN SINGAPORE 828755,828755,35634.83248,43085.45963,1.405923085,103.9019239,71_PUNGGOL_CENTRAL
WATERTOWN,73,PUNGGOL_CENTRAL,WATERTOWN,73 PUNGGOL CENTRAL WATERTOWN SINGAPORE 828756,828756,35578.94316,43146.59684,1.406476002,103.9014217,73_PUNGGOL_CENTRAL
WATERTOWN,75,PUNGGOL_CENTRAL,WATERTOWN,75 PUNGGOL CENTRAL WATERTOWN SINGAPORE 828757,828757,35623.05251,43142.55689,1.406439455,103.9018181,75_PUNGGOL_CENTRAL
WATERTOWN,77,PUNGGOL_CENTRAL,WATERTOWN,77 PUNGGOL CENTRAL WATERTOWN SINGAPORE 828758,828758,35653.18595,43121.39436,1.406248061,103.9020889,77_PUNGGOL_CENTRAL
WATERTOWN,79,PUNGGOL_CENTRAL,WATERTOWN,79 PUNGGOL CENTRAL WATERTOWN SINGAPORE 828759,828759,35629.68069,43186.46656,1.406836556,103.9018777,79_PUNGGOL_CENTRAL
PARC CENTROS,80,PUNGGOL_CENTRAL,PARC CENTROS,80 PUNGGOL CENTRAL PARC CENTROS SINGAPORE 828762,828762,35921.01324,42814.17911,1.403469646,103.9044954,80_PUNGGOL_CENTRAL
WATERTOWN,81,PUNGGOL_CENTRAL,WATERTOWN,81 PUNGGOL CENTRAL WATERTOWN SINGAPORE 828760,828760,35603.49855,43213.22751,1.407078579,103.9016424,81_PUNGGOL_CENTRAL
PARC CENTROS,82,PUNGGOL_CENTRAL,PARC CENTROS,82 PUNGGOL CENTRAL PARC CENTROS SINGAPORE 828763,828763,35885.54064,42844.00494,1.403739389,103.9041767,82_PUNGGOL_CENTRAL
PARC CENTROS,84,PUNGGOL_CENTRAL,PARC CENTROS,84 PUNGGOL CENTRAL PARC CENTROS SINGAPORE 828719,828719,35854.49971,42856.96166,1.403856574,103.9038978,84_PUNGGOL_CENTRAL
PARC CENTROS,86,PUNGGOL_CENTRAL,PARC CENTROS,86 PUNGGOL CENTRAL PARC CENTROS SINGAPORE 828720,828720,35834.39532,42818.41744,1.403508,103.9037171,86_PUNGGOL_CENTRAL
PARC CENTROS,88,PUNGGOL_CENTRAL,PARC CENTROS,88 PUNGGOL CENTRAL PARC CENTROS SINGAPORE 828721,828721,35902.47528,42785.54069,1.403210656,103.9043289,88_PUNGGOL_CENTRAL
RIVERPARC RESIDENCE,90,PUNGGOL_DRIVE,RIVERPARC RESIDENCE,90 PUNGGOL DRIVE RIVERPARC RESIDENCE SINGAPORE 828794,828794,37354.79846,42249.84538,1.39836559,103.917379,90_PUNGGOL_DRIVE
PARC CENTROS,90,PUNGGOL_CENTRAL,PARC CENTROS,90 PUNGGOL CENTRAL PARC CENTROS SINGAPORE 828722,828722,35869.97772,42744.73303,1.402841615,103.9040368,90_PUNGGOL_CENTRAL
RIVERPARC RESIDENCE,92,PUNGGOL_DRIVE,RIVERPARC RESIDENCE,92 PUNGGOL DRIVE RIVERPARC RESIDENCE SINGAPORE 828795,828795,37382.28318,42237.3803,1.398252851,103.917626,92_PUNGGOL_DRIVE
PARC CENTROS,92,PUNGGOL_CENTRAL,PARC CENTROS,92 PUNGGOL CENTRAL PARC CENTROS SINGAPORE 828723,828723,35839.94725,42762.51614,1.403002447,103.903767,92_PUNGGOL_CENTRAL
RIVERPARC RESIDENCE,94,PUNGGOL_DRIVE,RIVERPARC RESIDENCE,94 PUNGGOL DRIVE RIVERPARC RESIDENCE SINGAPORE 828796,828796,37412.69627,42212.51446,1.398027964,103.9178992,94_PUNGGOL_DRIVE
PARC CENTROS,94,PUNGGOL_CENTRAL,PARC CENTROS,94 PUNGGOL CENTRAL PARC CENTROS SINGAPORE 828724,828724,35811.11963,42780.12938,1.403161743,103.9035079,94_PUNGGOL_CENTRAL
RIVERPARC RESIDENCE,96,PUNGGOL_DRIVE,RIVERPARC RESIDENCE,96 PUNGGOL DRIVE RIVERPARC RESIDENCE SINGAPORE 828797,828797,37399.27726,42163.98483,1.397589084,103.9177786,96_PUNGGOL_DRIVE
RIVERPARC RESIDENCE,98,PUNGGOL_DRIVE,RIVERPARC RESIDENCE,98 PUNGGOL DRIVE RIVERPARC RESIDENCE SINGAPORE 828798,828798,37374.4494,42173.81409,1.397677985,103.9175556,98_PUNGGOL_DRIVE
RIVERPARC RESIDENCE,100,PUNGGOL_DRIVE,RIVERPARC RESIDENCE,100 PUNGGOL DRIVE RIVERPARC RESIDENCE SINGAPORE 828799,828799,37349.20917,42198.83754,1.397904296,103.9173288,100_PUNGGOL_DRIVE
TWIN WATERFALLS,100,PUNGGOL_WALK,TWIN WATERFALLS,100 PUNGGOL WALK TWIN WATERFALLS SINGAPORE 828790,828790,35163.04911,42616.86494,1.401685407,103.8976845,100_PUNGGOL_WALK
RIVERPARC RESIDENCE,102,PUNGGOL_DRIVE,RIVERPARC RESIDENCE,102 PUNGGOL DRIVE RIVERPARC RESIDENCE SINGAPORE 828800,828800,37324.10899,42209.54801,1.398001165,103.9171032,102_PUNGGOL_DRIVE
TWIN WATERFALLS,102,PUNGGOL_WALK,TWIN WATERFALLS,102 PUNGGOL WALK TWIN WATERFALLS SINGAPORE 828791,828791,35135.99111,42624.83919,1.40175753,103.8974413,102_PUNGGOL_WALK
RIVERPARC RESIDENCE,104,PUNGGOL_DRIVE,RIVERPARC RESIDENCE,104 PUNGGOL DRIVE RIVERPARC RESIDENCE SINGAPORE 828801,828801,37379.65991,42204.77972,1.397958025,103.9176024,104_PUNGGOL_DRIVE
TWIN WATERFALLS,104,PUNGGOL_WALK,TWIN WATERFALLS,104 PUNGGOL WALK TWIN WATERFALLS SINGAPORE 828792,828792,35100.23593,42617.65296,1.401692549,103.89712,104_PUNGGOL_WALK
TWIN WATERFALLS,106,PUNGGOL_WALK,TWIN WATERFALLS,106 PUNGGOL WALK TWIN WATERFALLS SINGAPORE 828793,828793,35073.55537,42624.74063,1.401756654,103.8968803,106_PUNGGOL_WALK
TWIN WATERFALLS,108,PUNGGOL_WALK,TWIN WATERFALLS,108 PUNGGOL WALK TWIN WATERFALLS SINGAPORE 828764,828764,35088.15522,42681.39274,1.402268992,103.8970115,108_PUNGGOL_WALK
TWIN WATERFALLS,110,PUNGGOL_WALK,TWIN WATERFALLS,110 PUNGGOL WALK TWIN WATERFALLS SINGAPORE 828765,828765,35118.11889,42672.24751,1.402186278,103.8972807,110_PUNGGOL_WALK
TWIN WATERFALLS,112,PUNGGOL_WALK,TWIN WATERFALLS,112 PUNGGOL WALK TWIN WATERFALLS SINGAPORE 828766,828766,35150.34836,42674.07018,1.402202754,103.8975703,112_PUNGGOL_WALK
TWIN WATERFALLS,114,PUNGGOL_WALK,TWIN WATERFALLS,114 PUNGGOL WALK TWIN WATERFALLS SINGAPORE 828767,828767,35179.01438,42666.15877,1.402131199,103.8978279,114_PUNGGOL_WALK
TWIN WATERFALLS,116,PUNGGOL_WALK,TWIN WATERFALLS,116 PUNGGOL WALK TWIN WATERFALLS SINGAPORE 828768,828768,35193.77968,42711.51356,1.402541367,103.8979606,116_PUNGGOL_WALK
TWIN WATERFALLS,118,PUNGGOL_WALK,TWIN WATERFALLS,118 PUNGGOL WALK TWIN WATERFALLS SINGAPORE 828769,828769,35164.61381,42719.89894,1.402617209,103.8976985,118_PUNGGOL_WALK
PUNGGOL EDGE,120,EDGEDALE_PLAINS,PUNGGOL EDGE,120 EDGEDALE PLAINS PUNGGOL EDGE SINGAPORE 820120,820120,36268.29498,41789.92228,1.394206545,103.9076158,120_EDGEDALE_PLAINS
TWIN WATERFALLS,120,PUNGGOL_WALK,TWIN WATERFALLS,120 PUNGGOL WALK TWIN WATERFALLS SINGAPORE 828770,828770,35129.02938,42736.18033,1.40276446,103.8973788,120_PUNGGOL_WALK
PUNGGOL EDGE,121,EDGEDALE_PLAINS,PUNGGOL EDGE,121 EDGEDALE PLAINS PUNGGOL EDGE SINGAPORE 820121,820121,36344.38291,41731.9445,1.393682194,103.9082995,121_EDGEDALE_PLAINS
PUNGGOL EDGE,122,EDGEDALE_PLAINS,PUNGGOL EDGE,122 EDGEDALE PLAINS PUNGGOL EDGE SINGAPORE 820122,820122,36434.28106,41743.24548,1.39378437,103.9091073,122_EDGEDALE_PLAINS
TWIN WATERFALLS,122,PUNGGOL_WALK,TWIN WATERFALLS,122 PUNGGOL WALK TWIN WATERFALLS SINGAPORE 828771,828771,35090.98307,42739.69151,1.402796224,103.8970369,122_PUNGGOL_WALK
ECOPOLITAN,124,PUNGGOL_WALK,ECOPOLITAN,124 PUNGGOL WALK ECOPOLITAN SINGAPORE 828773,828773,35176.33143,42536.41736,1.400957865,103.8978038,124_PUNGGOL_WALK
ECOPOLITAN,126,PUNGGOL_WALK,ECOPOLITAN,126 PUNGGOL WALK ECOPOLITAN SINGAPORE 828774,828774,35141.50962,42533.32312,1.400929891,103.8974909,126_PUNGGOL_WALK
ECOPOLITAN,128,PUNGGOL_WALK,ECOPOLITAN,128 PUNGGOL WALK ECOPOLITAN SINGAPORE 828775,828775,35110.47247,42544.40659,1.401030133,103.897212,128_PUNGGOL_WALK
ECOPOLITAN,130,PUNGGOL_WALK,ECOPOLITAN,130 PUNGGOL WALK ECOPOLITAN SINGAPORE 828776,828776,35069.76954,42576.07995,1.401316586,103.8968463,130_PUNGGOL_WALK
ECOPOLITAN,132,PUNGGOL_WALK,ECOPOLITAN,132 PUNGGOL WALK ECOPOLITAN SINGAPORE 828777,828777,35060.9851,42529.65304,1.40089672,103.8967673,132_PUNGGOL_WALK
ECOPOLITAN,134,PUNGGOL_WALK,ECOPOLITAN,134 PUNGGOL WALK ECOPOLITAN SINGAPORE 828778,828778,35087.77045,42506.75452,1.400689627,103.897008,134_PUNGGOL_WALK
ECOPOLITAN,136,PUNGGOL_WALK,ECOPOLITAN,136 PUNGGOL WALK ECOPOLITAN SINGAPORE 828699,828699,35128.08922,42492.48423,1.400560562,103.8973703,136_PUNGGOL_WALK
ECOPOLITAN,138,PUNGGOL_WALK,ECOPOLITAN,138 PUNGGOL WALK ECOPOLITAN SINGAPORE 828700,828700,35160.28982,42480.87004,1.40045552,103.8976596,138_PUNGGOL_WALK
ECOPOLITAN,140,PUNGGOL_WALK,ECOPOLITAN,140 PUNGGOL WALK ECOPOLITAN SINGAPORE 828701,828701,35060.3483,42491.64444,1.400552984,103.8967616,140_PUNGGOL_WALK
THE SUNDIAL,167,PUNGGOL_EAST,THE SUNDIAL,167 PUNGGOL EAST THE SUNDIAL SINGAPORE 820167,820167,36988.93133,41862.83997,1.394865772,103.9140913,167_PUNGGOL_EAST
PUNGGOL PLAZA,168,PUNGGOL_FIELD,PUNGGOL PLAZA,168 PUNGGOL FIELD PUNGGOL PLAZA SINGAPORE 820168,820168,36864.86764,41787.45925,1.394184094,103.9129764,168_PUNGGOL_FIELD
THE NAUTILUS @ PUNGGOL,169,PUNGGOL_FIELD,THE NAUTILUS @ PUNGGOL,169 PUNGGOL FIELD THE NAUTILUS @ PUNGGOL SINGAPORE 820169,820169,37023.33743,41733.81906,1.393698943,103.9144004,169_PUNGGOL_FIELD
THE PERIWINKLE,195,PUNGGOL_ROAD,THE PERIWINKLE,195 PUNGGOL ROAD THE PERIWINKLE SINGAPORE 820195,820195,36166.61807,42593.13493,1.401470535,103.9067023,195_PUNGGOL_ROAD
PUNGGOL SAILS,207,PUNGGOL_PLACE,PUNGGOL SAILS,207 PUNGGOL PLACE PUNGGOL SAILS SINGAPORE 820207,820207,35520.43336,42511.86654,1.400735749,103.9008958,207_PUNGGOL_PLACE
PUNGGOL SAILS,208,PUNGGOL_PLACE,PUNGGOL SAILS,208 PUNGGOL PLACE PUNGGOL SAILS SINGAPORE 820208,820208,35521.13882,42560.06083,1.4011716,103.9009022,208_PUNGGOL_PLACE
PUNGGOL CREST,209,PUNGGOL_PLACE,PUNGGOL CREST,209 PUNGGOL PLACE PUNGGOL CREST SINGAPORE 820209,820209,35524.97904,42317.34214,1.39897654,103.9009366,209_PUNGGOL_PLACE
PUNGGOL CREST,210,PUNGGOL_PLACE,PUNGGOL CREST,210 PUNGGOL PLACE PUNGGOL CREST SINGAPORE 820210,820210,35465.67906,42362.70092,1.399386764,103.9004038,210_PUNGGOL_PLACE
PUNGGOL RIPPLES,211,PUNGGOL_WALK,PUNGGOL RIPPLES,211 PUNGGOL WALK PUNGGOL RIPPLES SINGAPORE 820211,820211,35356.30561,42591.39379,1.401455007,103.899421,211_PUNGGOL_WALK
PUNGGOL WAVES,212,PUNGGOL_WALK,PUNGGOL WAVES,212 PUNGGOL WALK PUNGGOL WAVES SINGAPORE 820212,820212,35329.64312,42397.06153,1.399697544,103.8991814,212_PUNGGOL_WALK
PUNGGOL WAVES,213,PUNGGOL_WALK,PUNGGOL WAVES,213 PUNGGOL WALK PUNGGOL WAVES SINGAPORE 820213,820213,35270.16042,42432.00958,1.400013616,103.8986469,213_PUNGGOL_WALK
PUNGGOL OPAL,256,SUMANG_WALK,PUNGGOL OPAL,256 SUMANG WALK PUNGGOL OPAL SINGAPORE 820256,820256,34921.55076,43042.51642,1.405534903,103.8955145,256_SUMANG_WALK
PUNGGOL OPAL,257,SUMANG_WALK,PUNGGOL OPAL,257 SUMANG WALK PUNGGOL OPAL SINGAPORE 820257,820257,34935.71884,43009.42255,1.405235611,103.8956418,257_SUMANG_WALK
PUNGGOL TOPAZ,258,PUNGGOL_FIELD,PUNGGOL TOPAZ,258 PUNGGOL FIELD PUNGGOL TOPAZ SINGAPORE 820258,820258,34935.39873,42895.99332,1.404209798,103.8956389,258_PUNGGOL_FIELD
PUNGGOL TOPAZ,259,PUNGGOL_FIELD,PUNGGOL TOPAZ,259 PUNGGOL FIELD PUNGGOL TOPAZ SINGAPORE 820259,820259,34901.56736,42924.38974,1.404466613,103.8953349,259_PUNGGOL_FIELD
PUNGGOL TOPAZ,261,PUNGGOL_WAY,PUNGGOL TOPAZ,261 PUNGGOL WAY PUNGGOL TOPAZ SINGAPORE 820261,820261,35067.26837,43029.10035,1.405413537,103.8968239,261_PUNGGOL_WAY
PUNGGOL EMERALD,264,PUNGGOL_WAY,PUNGGOL EMERALD,264 PUNGGOL WAY PUNGGOL EMERALD SINGAPORE 820264,820264,35312.14302,43109.45267,1.406140153,103.8990243,264_PUNGGOL_WAY
PUNGGOL EMERALD,265,PUNGGOL_WAY,PUNGGOL EMERALD,265 PUNGGOL WAY PUNGGOL EMERALD SINGAPORE 820265,820265,35311.71216,43092.60929,1.405987828,103.8990204,265_PUNGGOL_WAY
PUNGGOL EMERALD,266,PUNGGOL_WAY,PUNGGOL EMERALD,266 PUNGGOL WAY PUNGGOL EMERALD SINGAPORE 820266,820266,35237.57073,43034.24569,1.405460028,103.8983542,266_PUNGGOL_WAY
PUNGGOL SAPPHIRE,267,PUNGGOL_FIELD,PUNGGOL SAPPHIRE,267 PUNGGOL FIELD PUNGGOL SAPPHIRE SINGAPORE 820267,820267,35187.80196,42879.85446,1.404063782,103.897907,267_PUNGGOL_FIELD
PUNGGOL SAPPHIRE,268,PUNGGOL_FIELD,PUNGGOL SAPPHIRE,268 PUNGGOL FIELD PUNGGOL SAPPHIRE SINGAPORE 820268,820268,35102.54532,42822.0552,1.403541088,103.8971408,268_PUNGGOL_FIELD
PUNGGOL SAPPHIRE,269,PUNGGOL_FIELD,PUNGGOL SAPPHIRE,269 PUNGGOL FIELD PUNGGOL SAPPHIRE SINGAPORE 820269,820269,35359.30693,42808.69894,1.403420234,103.899448,269_PUNGGOL_FIELD
PUNGGOL SAPPHIRE,270,PUNGGOL_FIELD,PUNGGOL SAPPHIRE,270 PUNGGOL FIELD PUNGGOL SAPPHIRE SINGAPORE 820270,820270,35323.92368,42843.22557,1.40373249,103.8991301,270_PUNGGOL_FIELD
PUNGGOL RESIDENCES,271,PUNGGOL_WALK,PUNGGOL RESIDENCES,271 PUNGGOL WALK PUNGGOL RESIDENCES SINGAPORE 820271,820271,35490.52875,42809.9658,1.403431658,103.9006272,271_PUNGGOL_WALK
PUNGGOL RESIDENCES,272,PUNGGOL_WALK,PUNGGOL RESIDENCES,272 PUNGGOL WALK PUNGGOL RESIDENCES SINGAPORE 820272,820272,35505.9271,42745.77564,1.402851141,103.9007655,272_PUNGGOL_WALK
PUNGGOL REGALIA,273,PUNGGOL_PLACE,PUNGGOL REGALIA,273 PUNGGOL PLACE PUNGGOL REGALIA SINGAPORE 820273,820273,35631.4171,42730.70461,1.402714811,103.9018932,273_PUNGGOL_PLACE
PUNGGOL REGALIA,274,PUNGGOL_PLACE,PUNGGOL REGALIA,274 PUNGGOL PLACE PUNGGOL REGALIA SINGAPORE 820274,820274,35722.73845,42766.96877,1.403042747,103.9027138,274_PUNGGOL_PLACE
PUNGGOL ARCADIA,288,PUNGGOL_PLACE,PUNGGOL ARCADIA,288 PUNGGOL PLACE PUNGGOL ARCADIA SINGAPORE 820288,820288,35787.77148,42646.27058,1.401951179,103.9032981,288_PUNGGOL_PLACE
PUNGGOL ARCADIA,289,PUNGGOL_PLACE,PUNGGOL ARCADIA,289 PUNGGOL PLACE PUNGGOL ARCADIA SINGAPORE 820289,820289,35741.49401,42649.64601,1.401981718,103.9028823,289_PUNGGOL_PLACE
PUNGGOL GROVE,293,PUNGGOL_CENTRAL,PUNGGOL GROVE,293 PUNGGOL CENTRAL PUNGGOL GROVE SINGAPORE 820293,820293,35971.0822,42770.60604,1.403075573,103.9049453,293_PUNGGOL_CENTRAL
PUNGGOL GROVE,294,PUNGGOL_CENTRAL,PUNGGOL GROVE,294 PUNGGOL CENTRAL PUNGGOL GROVE SINGAPORE 820294,820294,35936.60004,42714.90215,1.402571817,103.9046355,294_PUNGGOL_CENTRAL
PUNGGOL GROVE,295,PUNGGOL_CENTRAL,PUNGGOL GROVE,295 PUNGGOL CENTRAL PUNGGOL GROVE SINGAPORE 820295,820295,35967.96215,42639.09184,1.401886208,103.9049173,295_PUNGGOL_CENTRAL
PUNGGOL GROVE,296,PUNGGOL_CENTRAL,PUNGGOL GROVE,296 PUNGGOL CENTRAL PUNGGOL GROVE SINGAPORE 820296,820296,36006.6831,42606.13978,1.401588191,103.9052652,296_PUNGGOL_CENTRAL
PUNGGOL GROVE,297,PUNGGOL_CENTRAL,PUNGGOL GROVE,297 PUNGGOL CENTRAL PUNGGOL GROVE SINGAPORE 820297,820297,36027.46238,42672.81963,1.402191213,103.9054519,297_PUNGGOL_CENTRAL
PUNGGOL GROVE,298,PUNGGOL_CENTRAL,PUNGGOL GROVE,298 PUNGGOL CENTRAL PUNGGOL GROVE SINGAPORE 820298,820298,36044.24334,42719.92672,1.402617228,103.9056027,298_PUNGGOL_CENTRAL
PUNGGOL GROVE,299,PUNGGOL_CENTRAL,PUNGGOL GROVE,299 PUNGGOL CENTRAL PUNGGOL GROVE SINGAPORE 820299,820299,36011.46523,42729.75846,1.402706152,103.9053082,299_PUNGGOL_CENTRAL
CORALINUS,301,PUNGGOL_CENTRAL,CORALINUS,301 PUNGGOL CENTRAL CORALINUS SINGAPORE 820301,820301,36103.80746,42841.80103,1.403719398,103.906138,301_PUNGGOL_CENTRAL
CORALINUS,302,PUNGGOL_PLACE,CORALINUS,302 PUNGGOL PLACE CORALINUS SINGAPORE 820302,820302,35929.98503,42969.22688,1.404871839,103.9045761,302_PUNGGOL_PLACE
CORALINUS,303,PUNGGOL_CENTRAL,CORALINUS,303 PUNGGOL CENTRAL CORALINUS SINGAPORE 820303,820303,36066.70049,42875.46067,1.404023813,103.9058046,303_PUNGGOL_CENTRAL
TREELODGE@PUNGGOL,305,PUNGGOL_ROAD,TREELODGE@PUNGGOL,305 PUNGGOL ROAD TREELODGE@PUNGGOL SINGAPORE 820305,820305,36120.24186,43083.42332,1.405904536,103.9062858,305_PUNGGOL_ROAD
WATERWAY TERRACES I,308,PUNGGOL_WALK,WATERWAY TERRACES I,308 PUNGGOL WALK WATERWAY TERRACES I SINGAPORE 820308,820308,35415.42565,43277.53999,1.407660247,103.8999524,308_PUNGGOL_WALK
WATERWAY TERRACES II,310,PUNGGOL_WALK,WATERWAY TERRACES II,310 PUNGGOL WALK WATERWAY TERRACES II SINGAPORE 820310,820310,35501.14769,43473.31509,1.409430743,103.9007228,310_PUNGGOL_WALK
PUNGGOL PARCVISTA,312,SUMANG_LINK,PUNGGOL PARCVISTA,312 SUMANG LINK PUNGGOL PARCVISTA SINGAPORE 820312,820312,35587.92052,43558.62343,1.410202217,103.9015025,312_SUMANG_LINK
PUNGGOL PARCVISTA,313,SUMANG_LINK,PUNGGOL PARCVISTA,313 SUMANG LINK PUNGGOL PARCVISTA SINGAPORE 820313,820313,35624.44163,43554.98634,1.410169315,103.9018307,313_SUMANG_LINK
WATERWAY CASCADIA,314,PUNGGOL_WAY,WATERWAY CASCADIA,314 PUNGGOL WAY WATERWAY CASCADIA SINGAPORE 820314,820314,35105.88212,43363.83455,1.408440742,103.897171,314_PUNGGOL_WAY
WATERWAY CASCADIA,315,PUNGGOL_WAY,WATERWAY CASCADIA,315 PUNGGOL WAY WATERWAY CASCADIA SINGAPORE 820315,820315,35079.64465,43310.21978,1.407955876,103.8969352,315_PUNGGOL_WAY
WATERWAY CASCADIA,316,PUNGGOL_WAY,WATERWAY CASCADIA,316 PUNGGOL WAY WATERWAY CASCADIA SINGAPORE 820316,820316,35152.54221,43438.42549,1.409115303,103.8975903,316_PUNGGOL_WAY
PUNGGOL BAYVIEW,321,SUMANG_WALK,PUNGGOL BAYVIEW,321 SUMANG WALK PUNGGOL BAYVIEW SINGAPORE 820321,820321,35096.9188,43584.64328,1.410437657,103.8970905,321_SUMANG_WALK
PUNGGOL BAYVIEW,322,SUMANG_WALK,PUNGGOL BAYVIEW,322 SUMANG WALK PUNGGOL BAYVIEW SINGAPORE 820322,820322,35142.64349,43674.14153,1.411247035,103.8975014,322_SUMANG_WALK
PUNGGOL BAYVIEW,324,SUMANG_WALK,PUNGGOL BAYVIEW,324 SUMANG WALK PUNGGOL BAYVIEW SINGAPORE 820324,820324,35244.78184,43887.0316,1.413172309,103.8984192,324_SUMANG_WALK
PUNGGOL BAYVIEW,325,SUMANG_WALK,PUNGGOL BAYVIEW,325 SUMANG WALK PUNGGOL BAYVIEW SINGAPORE 820325,820325,35281.73269,43919.06878,1.413462032,103.8987513,325_SUMANG_WALK
PUNGGOL VUE,326,SUMANG_WALK,PUNGGOL VUE,326 SUMANG WALK PUNGGOL VUE SINGAPORE 820326,820326,35368.05207,43883.85222,1.413143525,103.8995269,326_SUMANG_WALK
PUNGGOL VUE,327,SUMANG_WALK,PUNGGOL VUE,327 SUMANG WALK PUNGGOL VUE SINGAPORE 820327,820327,35427.53959,43791.8944,1.412311876,103.9000614,327_SUMANG_WALK
BEAUTY GARDEN,401,PUNGGOL_ROAD,BEAUTY GARDEN,401 PUNGGOL ROAD BEAUTY GARDEN SINGAPORE 546638,546638,35553.56007,41472.07398,1.391332237,103.9011932,401_PUNGGOL_ROAD
BEAUTY GARDEN,403,PUNGGOL_ROAD,BEAUTY GARDEN,403 PUNGGOL ROAD BEAUTY GARDEN SINGAPORE 546639,546639,35549.56584,41477.4509,1.391380865,103.9011573,403_PUNGGOL_ROAD
BEAUTY GARDEN,405,PUNGGOL_ROAD,BEAUTY GARDEN,405 PUNGGOL ROAD BEAUTY GARDEN SINGAPORE 546640,546640,35551.27505,41483.97971,1.391439908,103.9011727,405_PUNGGOL_ROAD
BEAUTY GARDEN,407,PUNGGOL_ROAD,BEAUTY GARDEN,407 PUNGGOL ROAD BEAUTY GARDEN SINGAPORE 546642,546642,35550.12314,41489.9632,1.391494021,103.9011623,407_PUNGGOL_ROAD
BEAUTY GARDEN,409,PUNGGOL_ROAD,BEAUTY GARDEN,409 PUNGGOL ROAD BEAUTY GARDEN SINGAPORE 546643,546643,35548.97068,41495.94727,1.391548139,103.901152,409_PUNGGOL_ROAD
BEAUTY GARDEN,411,PUNGGOL_ROAD,BEAUTY GARDEN,411 PUNGGOL ROAD BEAUTY GARDEN SINGAPORE 546644,546644,35547.81986,41501.93271,1.391602269,103.9011417,411_PUNGGOL_ROAD
BEAUTY GARDEN,413,PUNGGOL_ROAD,BEAUTY GARDEN,413 PUNGGOL ROAD BEAUTY GARDEN SINGAPORE 546645,546645,35546.66699,41507.91608,1.391656381,103.9011313,413_PUNGGOL_ROAD
BEAUTY GARDEN,415,PUNGGOL_ROAD,BEAUTY GARDEN,415 PUNGGOL ROAD BEAUTY GARDEN SINGAPORE 546646,546646,35545.53127,41513.84703,1.391710019,103.9011211,415_PUNGGOL_ROAD
BEAUTY GARDEN,417,PUNGGOL_ROAD,BEAUTY GARDEN,417 PUNGGOL ROAD BEAUTY GARDEN SINGAPORE 546647,546647,35541.62204,41526.06579,1.391820522,103.901086,417_PUNGGOL_ROAD
BEAUTY GARDEN,419,PUNGGOL_ROAD,BEAUTY GARDEN,419 PUNGGOL ROAD BEAUTY GARDEN SINGAPORE 546648,546648,35540.59747,41531.48092,1.391869495,103.9010768,419_PUNGGOL_ROAD
BEAUTY GARDEN,421,PUNGGOL_ROAD,BEAUTY GARDEN,421 PUNGGOL ROAD BEAUTY GARDEN SINGAPORE 546649,546649,35539.24603,41537.95185,1.391928016,103.9010646,421_PUNGGOL_ROAD
BEAUTY GARDEN,423,PUNGGOL_ROAD,BEAUTY GARDEN,423 PUNGGOL ROAD BEAUTY GARDEN SINGAPORE 546650,546650,35538.21438,41543.42721,1.391977533,103.9010554,423_PUNGGOL_ROAD
BEAUTY GARDEN,425,PUNGGOL_ROAD,BEAUTY GARDEN,425 PUNGGOL ROAD BEAUTY GARDEN SINGAPORE 546651,546651,35532.6497,41548.98332,1.392027782,103.9010053,425_PUNGGOL_ROAD
BEAUTY GARDEN,427,PUNGGOL_ROAD,BEAUTY GARDEN,427 PUNGGOL ROAD BEAUTY GARDEN SINGAPORE 546652,546652,35535.92509,41555.40546,1.392085861,103.9010348,427_PUNGGOL_ROAD
BEAUTY GARDEN,429,PUNGGOL_ROAD,BEAUTY GARDEN,429 PUNGGOL ROAD BEAUTY GARDEN SINGAPORE 546653,546653,35532.53172,41561.32842,1.392139427,103.9010043,429_PUNGGOL_ROAD
PUNGGOL POINT WOODS,430,NORTHSHORE_DRIVE,PUNGGOL POINT WOODS,430 NORTHSHORE DRIVE PUNGGOL POINT WOODS SINGAPORE 820430,820430,36658.33618,44375.45601,1.417589046,103.9111214,430_NORTHSHORE_DRIVE
BEAUTY GARDEN,431,PUNGGOL_ROAD,BEAUTY GARDEN,431 PUNGGOL ROAD BEAUTY GARDEN SINGAPORE 546654,546654,35533.61782,41567.29615,1.392193396,103.9010141,431_PUNGGOL_ROAD
PUNGGOL POINT WOODS,431,NORTHSHORE_DRIVE,PUNGGOL POINT WOODS,431 NORTHSHORE DRIVE PUNGGOL POINT WOODS SINGAPORE 820431,820431,36604.865,44359.92075,1.417448567,103.9106409,431_NORTHSHORE_DRIVE
PUNGGOL POINT WOODS,432,NORTHSHORE_DRIVE,PUNGGOL POINT WOODS,432 NORTHSHORE DRIVE PUNGGOL POINT WOODS SINGAPORE 820432,820432,36566.95226,44335.00112,1.417223215,103.9103002,432_NORTHSHORE_DRIVE
PUNGGOL POINT WOODS,433,NORTHSHORE_DRIVE,PUNGGOL POINT WOODS,433 NORTHSHORE DRIVE PUNGGOL POINT WOODS SINGAPORE 820433,820433,36618.86016,44303.86587,1.416941624,103.9107666,433_NORTHSHORE_DRIVE
BEAUTY GARDEN,433,PUNGGOL_ROAD,BEAUTY GARDEN,433 PUNGGOL ROAD BEAUTY GARDEN SINGAPORE 546655,546655,35530.957,41579.95885,1.392307914,103.9009901,433_PUNGGOL_ROAD
PUNGGOL POINT CROWN,435,NORTHSHORE_DRIVE,PUNGGOL POINT CROWN,435 NORTHSHORE DRIVE PUNGGOL POINT CROWN SINGAPORE 820435,820435,36641.62413,44536.67107,1.419047021,103.9109712,435_NORTHSHORE_DRIVE
BEAUTY GARDEN,435,PUNGGOL_ROAD,BEAUTY GARDEN,435 PUNGGOL ROAD BEAUTY GARDEN SINGAPORE 546656,546656,35530.10861,41585.33011,1.39235649,103.9009825,435_PUNGGOL_ROAD
PUNGGOL POINT CROWN,436,NORTHSHORE_DRIVE,PUNGGOL POINT CROWN,436 NORTHSHORE DRIVE PUNGGOL POINT CROWN SINGAPORE 820436,820436,36632.34654,44620.94676,1.419809182,103.9108879,436_NORTHSHORE_DRIVE
BEAUTY GARDEN,437,PUNGGOL_ROAD,BEAUTY GARDEN,437 PUNGGOL ROAD BEAUTY GARDEN SINGAPORE 546657,546657,35528.58986,41591.75283,1.392414575,103.9009689,437_PUNGGOL_ROAD
PUNGGOL POINT CROWN,438,NORTHSHORE_DRIVE,PUNGGOL POINT CROWN,438 NORTHSHORE DRIVE PUNGGOL POINT CROWN SINGAPORE 820438,820438,36689.41767,44526.30673,1.418953275,103.9114007,438_NORTHSHORE_DRIVE
BEAUTY GARDEN,439,PUNGGOL_ROAD,BEAUTY GARDEN,439 PUNGGOL ROAD BEAUTY GARDEN SINGAPORE 546658,546658,35527.72447,41597.27674,1.392464531,103.9009611,439_PUNGGOL_ROAD
PUNGGOL POINT COVE,441,NEW_PUNGGOL_ROAD,PUNGGOL POINT COVE,441 NEW PUNGGOL ROAD PUNGGOL POINT COVE SINGAPORE 820441,820441,36829.85107,44635.20728,1.419938088,103.9126627,441_NEW_PUNGGOL_ROAD
BEAUTY GARDEN,441,PUNGGOL_ROAD,BEAUTY GARDEN,441 PUNGGOL ROAD BEAUTY GARDEN SINGAPORE 546659,546659,35526.29721,41603.72914,1.392522885,103.9009483,441_PUNGGOL_ROAD
PUNGGOL POINT COVE,442,NEW_PUNGGOL_ROAD,PUNGGOL POINT COVE,442 NEW PUNGGOL ROAD PUNGGOL POINT COVE SINGAPORE 820442,820442,36804.54243,44536.90764,1.41904911,103.9124352,442_NEW_PUNGGOL_ROAD
BEAUTY GARDEN,443,PUNGGOL_ROAD,BEAUTY GARDEN,443 PUNGGOL ROAD BEAUTY GARDEN SINGAPORE 546660,546660,35525.37894,41609.23571,1.392572684,103.90094,443_PUNGGOL_ROAD
PUNGGOL POINT COVE,445,NEW_PUNGGOL_ROAD,PUNGGOL POINT COVE,445 NEW PUNGGOL ROAD PUNGGOL POINT COVE SINGAPORE 820445,820445,36841.50512,44510.95608,1.418814403,103.9127673,445_NEW_PUNGGOL_ROAD
BEAUTY GARDEN,445,PUNGGOL_ROAD,BEAUTY GARDEN,445 PUNGGOL ROAD BEAUTY GARDEN SINGAPORE 546661,546661,35523.83966,41615.33247,1.392627822,103.9009262,445_PUNGGOL_ROAD
PUNGGOL POINT COVE,446,PUNGGOL_WAY,PUNGGOL POINT COVE,446 PUNGGOL WAY PUNGGOL POINT COVE SINGAPORE 820446,820446,36833.3057,44315.93326,1.417050691,103.9126936,446_PUNGGOL_WAY
PUNGGOL POINT COVE,447,PUNGGOL_WAY,PUNGGOL POINT COVE,447 PUNGGOL WAY PUNGGOL POINT COVE SINGAPORE 820447,820447,36785.63021,44401.10749,1.41782099,103.9122652,447_PUNGGOL_WAY
BEAUTY GARDEN,447,PUNGGOL_ROAD,BEAUTY GARDEN,447 PUNGGOL ROAD BEAUTY GARDEN SINGAPORE 546662,546662,35523.13974,41621.25113,1.392681348,103.9009199,447_PUNGGOL_ROAD
PUNGGOL POINT COVE,448,PUNGGOL_WAY,PUNGGOL POINT COVE,448 PUNGGOL WAY PUNGGOL POINT COVE SINGAPORE 820448,820448,36891.5199,44243.73534,1.416397742,103.9132167,448_PUNGGOL_WAY
BEAUTY GARDEN,449,PUNGGOL_ROAD,BEAUTY GARDEN,449 PUNGGOL ROAD BEAUTY GARDEN SINGAPORE 546663,546663,35517.24959,41630.73118,1.392767084,103.900867,449_PUNGGOL_ROAD
BEAUTY GARDEN,451,PUNGGOL_ROAD,BEAUTY GARDEN,451 PUNGGOL ROAD BEAUTY GARDEN SINGAPORE 546664,546664,35521.69412,41641.89989,1.392868088,103.9009069,451_PUNGGOL_ROAD
BEAUTY GARDEN,453,PUNGGOL_ROAD,BEAUTY GARDEN,453 PUNGGOL ROAD BEAUTY GARDEN SINGAPORE 546665,546665,35521.8305,41648.53293,1.392928075,103.9009082,453_PUNGGOL_ROAD
BEAUTY GARDEN,455,PUNGGOL_ROAD,BEAUTY GARDEN,455 PUNGGOL ROAD BEAUTY GARDEN SINGAPORE 546666,546666,35521.84863,41654.08205,1.392978259,103.9009083,455_PUNGGOL_ROAD
BEAUTY GARDEN,457,PUNGGOL_ROAD,BEAUTY GARDEN,457 PUNGGOL ROAD BEAUTY GARDEN SINGAPORE 546667,546667,35522.03814,41660.71722,1.393038265,103.90091,457_PUNGGOL_ROAD
BEAUTY GARDEN,459,PUNGGOL_ROAD,BEAUTY GARDEN,459 PUNGGOL ROAD BEAUTY GARDEN SINGAPORE 546668,546668,35522.08282,41666.26867,1.393088471,103.9009104,459_PUNGGOL_ROAD
BEAUTY GARDEN,461,PUNGGOL_ROAD,BEAUTY GARDEN,461 PUNGGOL ROAD BEAUTY GARDEN SINGAPORE 546669,546669,35521.11115,41672.72849,1.393146891,103.9009017,461_PUNGGOL_ROAD
BEAUTY GARDEN,463,PUNGGOL_ROAD,BEAUTY GARDEN,463 PUNGGOL ROAD BEAUTY GARDEN SINGAPORE 546670,546670,35521.00013,41680.04938,1.393213099,103.9009007,463_PUNGGOL_ROAD
PUNGGOL VISTA,601,PUNGGOL_CENTRAL,PUNGGOL VISTA,601 PUNGGOL CENTRAL PUNGGOL VISTA SINGAPORE 820601,820601,36246.05043,42726.21423,1.402674033,103.9074161,601_PUNGGOL_CENTRAL
PUNGGOL VISTA,602,PUNGGOL_CENTRAL,PUNGGOL VISTA,602 PUNGGOL CENTRAL PUNGGOL VISTA SINGAPORE 820602,820602,36239.33027,42784.09397,1.403197478,103.9073558,602_PUNGGOL_CENTRAL
PUNGGOL LODGE,603,PUNGGOL_ROAD,PUNGGOL LODGE,603 PUNGGOL ROAD PUNGGOL LODGE SINGAPORE 820603,820603,36310.0611,42858.19968,1.403867642,103.9079914,603_PUNGGOL_ROAD
PUNGGOL LODGE,604,PUNGGOL_ROAD,PUNGGOL LODGE,604 PUNGGOL ROAD PUNGGOL LODGE SINGAPORE 820604,820604,36275.68648,42890.03603,1.404155568,103.9076825,604_PUNGGOL_ROAD
DAMAI GROVE,612,PUNGGOL_DRIVE,DAMAI GROVE,612 PUNGGOL DRIVE DAMAI GROVE SINGAPORE 820612,820612,36385.09077,42940.29175,1.404610031,103.9086656,612_PUNGGOL_DRIVE
DAMAI GROVE,613,PUNGGOL_DRIVE,DAMAI GROVE,613 PUNGGOL DRIVE DAMAI GROVE SINGAPORE 820613,820613,36282.84549,42975.54354,1.404928865,103.9077468,613_PUNGGOL_DRIVE
PUNGGOL SPRING,614,EDGEFIELD_PLAINS,PUNGGOL SPRING,614 EDGEFIELD PLAINS PUNGGOL SPRING SINGAPORE 820614,820614,36497.9645,42797.04295,1.403314508,103.9096798,614_EDGEFIELD_PLAINS
PUNGGOL SPRING,615,EDGEFIELD_PLAINS,PUNGGOL SPRING,615 EDGEFIELD PLAINS PUNGGOL SPRING SINGAPORE 820615,820615,36509.99373,42870.00976,1.40397439,103.9097879,615_EDGEFIELD_PLAINS
PUNGGOL BREEZE,616,PUNGGOL_DRIVE,PUNGGOL BREEZE,616 PUNGGOL DRIVE PUNGGOL BREEZE SINGAPORE 820616,820616,36727.69263,42662.63573,1.40209891,103.9117441,616_PUNGGOL_DRIVE
PUNGGOL SPECTRA,622,PUNGGOL_CENTRAL,PUNGGOL SPECTRA,622 PUNGGOL CENTRAL PUNGGOL SPECTRA SINGAPORE 820622,820622,36653.06231,42497.13744,1.400602227,103.9110734,622_PUNGGOL_CENTRAL
PUNGGOL SPECTRA,623,PUNGGOL_CENTRAL,PUNGGOL SPECTRA,623 PUNGGOL CENTRAL PUNGGOL SPECTRA SINGAPORE 820623,820623,36761.1116,42447.18604,1.400150452,103.9120443,623_PUNGGOL_CENTRAL
PUNGGOL SPECTRA,624,PUNGGOL_CENTRAL,PUNGGOL SPECTRA,624 PUNGGOL CENTRAL PUNGGOL SPECTRA SINGAPORE 820624,820624,36698.23985,42457.324,1.400242155,103.9114794,624_PUNGGOL_CENTRAL
EDGEDALE GREEN,633,PUNGGOL_DRIVE,EDGEDALE GREEN,633 PUNGGOL DRIVE EDGEDALE GREEN SINGAPORE 820633,820633,36929.96863,42520.62603,1.400814565,103.9135616,633_PUNGGOL_DRIVE
EDGEDALE GREEN,635,PUNGGOL_DRIVE,EDGEDALE GREEN,635 PUNGGOL DRIVE EDGEDALE GREEN SINGAPORE 820635,820635,36916.48421,42536.27706,1.400956111,103.9134405,635_PUNGGOL_DRIVE
THE MEADOWS,639,PUNGGOL_DRIVE,THE MEADOWS,639 PUNGGOL DRIVE THE MEADOWS SINGAPORE 820639,820639,37207.41214,42369.32322,1.399446151,103.9160547,639_PUNGGOL_DRIVE
EASTDALE,643,PUNGGOL_CENTRAL,EASTDALE,643 PUNGGOL CENTRAL EASTDALE SINGAPORE 820643,820643,37203.40505,42134.16415,1.39731946,103.9160186,643_PUNGGOL_CENTRAL
EASTDALE,645,PUNGGOL_CENTRAL,EASTDALE,645 PUNGGOL CENTRAL EASTDALE SINGAPORE 820645,820645,37232.21164,42184.66585,1.39777617,103.9162774,645_PUNGGOL_CENTRAL
EASTDALE,646,PUNGGOL_CENTRAL,EASTDALE,646 PUNGGOL CENTRAL EASTDALE SINGAPORE 820646,820646,37176.95105,42225.86806,1.398148805,103.9157809,646_PUNGGOL_CENTRAL
EASTDALE,647,PUNGGOL_CENTRAL,EASTDALE,647 PUNGGOL CENTRAL EASTDALE SINGAPORE 820647,820647,37140.4912,42216.38679,1.398063071,103.9154533,647_PUNGGOL_CENTRAL
EASTDALE,648,PUNGGOL_CENTRAL,EASTDALE,648 PUNGGOL CENTRAL EASTDALE SINGAPORE 820648,820648,37109.18802,42175.39846,1.397692398,103.915172,648_PUNGGOL_CENTRAL
EASTDALE,649,PUNGGOL_CENTRAL,EASTDALE,649 PUNGGOL CENTRAL EASTDALE SINGAPORE 820649,820649,37080.64141,42125.17858,1.397238237,103.9149154,649_PUNGGOL_CENTRAL
EASTDALE,651,PUNGGOL_CENTRAL,EASTDALE,651 PUNGGOL CENTRAL EASTDALE SINGAPORE 820651,820651,37135.72884,42084.11255,1.396866833,103.9154104,651_PUNGGOL_CENTRAL
EASTDALE,652,PUNGGOL_CENTRAL,EASTDALE,652 PUNGGOL CENTRAL EASTDALE SINGAPORE 820652,820652,37172.13862,42093.65402,1.396953111,103.9157376,652_PUNGGOL_CENTRAL
WATERWAY SUNRISE II,653,PUNGGOL_DRIVE,WATERWAY SUNRISE II,653 PUNGGOL DRIVE WATERWAY SUNRISE II SINGAPORE 820653,820653,37659.6775,42199.76894,1.397912617,103.9201186,653_PUNGGOL_DRIVE
WATERWAY SUNRISE I,655,PUNGGOL_EAST,WATERWAY SUNRISE I,655 PUNGGOL EAST WATERWAY SUNRISE I SINGAPORE 820655,820655,37719.21169,42383.82625,1.399577143,103.9206536,655_PUNGGOL_EAST
WATERWAY SUNRISE I,657,PUNGGOL_EAST,WATERWAY SUNRISE I,657 PUNGGOL EAST WATERWAY SUNRISE I SINGAPORE 820657,820657,37985.22777,42253.06826,1.398394525,103.9230439,657_PUNGGOL_EAST
WATERWAY SUNRAY,658,PUNGGOL_EAST,WATERWAY SUNRAY,658 PUNGGOL EAST WATERWAY SUNRAY SINGAPORE 820658,820658,37574.44413,42419.98599,1.399904207,103.9193527,658_PUNGGOL_EAST
WATERWAY SUNRAY,659,PUNGGOL_EAST,WATERWAY SUNRAY,659 PUNGGOL EAST WATERWAY SUNRAY SINGAPORE 820659,820659,37599.55158,42543.54483,1.401021619,103.9195784,659_PUNGGOL_EAST
WATERWAY SUNBEAM,663,PUNGGOL_DRIVE,WATERWAY SUNBEAM,663 PUNGGOL DRIVE WATERWAY SUNBEAM SINGAPORE 820663,820663,37291.20118,42425.87832,1.399957587,103.9168076,663_PUNGGOL_DRIVE
WATERWAY WOODCRESS,665,PUNGGOL_DRIVE,WATERWAY WOODCRESS,665 PUNGGOL DRIVE WATERWAY WOODCRESS SINGAPORE 820665,820665,37026.2338,42648.82944,1.401973959,103.9144267,665_PUNGGOL_DRIVE
WATERWAY WOODCRESS,666,PUNGGOL_DRIVE,WATERWAY WOODCRESS,666 PUNGGOL DRIVE WATERWAY WOODCRESS SINGAPORE 820666,820666,37070.97751,42571.7262,1.401276652,103.9148287,666_PUNGGOL_DRIVE
WATERWAY BROOKS,675,PUNGGOL_DRIVE,WATERWAY BROOKS,675 PUNGGOL DRIVE WATERWAY BROOKS SINGAPORE 820675,820675,36618.20949,43029.08088,1.405412938,103.9107604,675_PUNGGOL_DRIVE
WATERWAY BROOKS,676,PUNGGOL_DRIVE,WATERWAY BROOKS,676 PUNGGOL DRIVE WATERWAY BROOKS SINGAPORE 820676,820676,36532.59498,42985.23262,1.405016416,103.9099911,676_PUNGGOL_DRIVE
WATERWAY BROOKS,677,PUNGGOL_DRIVE,WATERWAY BROOKS,677 PUNGGOL DRIVE WATERWAY BROOKS SINGAPORE 820677,820677,36514.55048,43076.55646,1.405842321,103.9098289,677_PUNGGOL_DRIVE
WATERWAY BROOKS,678,PUNGGOL_DRIVE,WATERWAY BROOKS,678 PUNGGOL DRIVE WATERWAY BROOKS SINGAPORE 820678,820678,36408.77704,43103.01649,1.406081647,103.9088785,678_PUNGGOL_DRIVE
WATERWAY BROOKS,679,PUNGGOL_DRIVE,WATERWAY BROOKS,679 PUNGGOL DRIVE WATERWAY BROOKS SINGAPORE 820679,820679,36333.82501,43118.51978,1.406221875,103.908205,679_PUNGGOL_DRIVE
OASIS TERRACES,681,PUNGGOL_DRIVE,OASIS TERRACES,681 PUNGGOL DRIVE OASIS TERRACES SINGAPORE 820681,820681,36897.56842,42721.87547,1.402634601,103.9132706,681_PUNGGOL_DRIVE
PUNGGOL EDGE,120A,EDGEDALE_PLAINS,PUNGGOL EDGE,120A EDGEDALE PLAINS PUNGGOL EDGE SINGAPORE 821120,821120,36307.07859,41823.719,1.394512179,103.9079643,120A_EDGEDALE_PLAINS
PUNGGOL EDGE,120B,EDGEDALE_PLAINS,PUNGGOL EDGE,120B EDGEDALE PLAINS PUNGGOL EDGE SINGAPORE 822120,822120,36264.83374,41859.72107,1.394837781,103.9075847,120B_EDGEDALE_PLAINS
PUNGGOL EDGE,121A,EDGEDALE_PLAINS,PUNGGOL EDGE,121A EDGEDALE PLAINS PUNGGOL EDGE SINGAPORE 821121,821121,36380.97696,41767.34654,1.394002346,103.9086283,121A_EDGEDALE_PLAINS
PUNGGOL EDGE,121B,EDGEDALE_PLAINS,PUNGGOL EDGE,121B EDGEDALE PLAINS PUNGGOL EDGE SINGAPORE 822121,822121,36426.9951,41666.32185,1.393088703,103.9090418,121B_EDGEDALE_PLAINS
PUNGGOL EDGE,122A,EDGEDALE_PLAINS,PUNGGOL EDGE,122A EDGEDALE PLAINS PUNGGOL EDGE SINGAPORE 821122,821122,36434.20381,41712.88627,1.393509812,103.9091066,122A_EDGEDALE_PLAINS
PUNGGOL EDGE,122B,EDGEDALE_PLAINS,PUNGGOL EDGE,122B EDGEDALE PLAINS PUNGGOL EDGE SINGAPORE 822122,822122,36488.6666,41783.6869,1.394150091,103.909596,122B_EDGEDALE_PLAINS
THE SUNDIAL,167A,PUNGGOL_EAST,THE SUNDIAL,167A PUNGGOL EAST THE SUNDIAL SINGAPORE 821167,821167,37101.96348,41756.96562,1.393908248,103.9151069,167A_PUNGGOL_EAST
THE SUNDIAL,167B,PUNGGOL_EAST,THE SUNDIAL,167B PUNGGOL EAST THE SUNDIAL SINGAPORE 822167,822167,37087.54357,41792.22619,1.394227136,103.9149774,167B_PUNGGOL_EAST
THE SUNDIAL,167C,PUNGGOL_EAST,THE SUNDIAL,167C PUNGGOL EAST THE SUNDIAL SINGAPORE 823167,823167,37062.50701,41810.11923,1.394388962,103.9147524,167C_PUNGGOL_EAST
THE SUNDIAL,167D,PUNGGOL_EAST,THE SUNDIAL,167D PUNGGOL EAST THE SUNDIAL SINGAPORE 824167,824167,37037.68479,41827.74821,1.394548399,103.9145293,167D_PUNGGOL_EAST
THE SUNDIAL,168A,PUNGGOL_EAST,THE SUNDIAL,168A PUNGGOL EAST THE SUNDIAL SINGAPORE 821168,821168,37005.34901,41832.25514,1.394589169,103.9142388,168A_PUNGGOL_EAST
THE SUNDIAL,168B,PUNGGOL_EAST,THE SUNDIAL,168B PUNGGOL EAST THE SUNDIAL SINGAPORE 822168,822168,36976.44297,41821.95528,1.394496029,103.913979,168B_PUNGGOL_EAST
THE NAUTILUS @ PUNGGOL,168C,PUNGGOL_FIELD,THE NAUTILUS @ PUNGGOL,168C PUNGGOL FIELD THE NAUTILUS @ PUNGGOL SINGAPORE 823168,823168,36953.94311,41756.39692,1.393903151,103.9137768,168C_PUNGGOL_FIELD
THE NAUTILUS @ PUNGGOL,168D,PUNGGOL_FIELD,THE NAUTILUS @ PUNGGOL,168D PUNGGOL FIELD THE NAUTILUS @ PUNGGOL SINGAPORE 824168,824168,36978.95679,41739.10573,1.393746768,103.9140016,168D_PUNGGOL_FIELD
THE NAUTILUS @ PUNGGOL,169A,PUNGGOL_FIELD,THE NAUTILUS @ PUNGGOL,169A PUNGGOL FIELD THE NAUTILUS @ PUNGGOL SINGAPORE 821169,821169,37010.18599,41665.68262,1.393082747,103.9142822,169A_PUNGGOL_FIELD
THE NAUTILUS @ PUNGGOL,169B,PUNGGOL_FIELD,THE NAUTILUS @ PUNGGOL,169B PUNGGOL FIELD THE NAUTILUS @ PUNGGOL SINGAPORE 822169,822169,36986.31411,41681.37445,1.393224665,103.9140677,169B_PUNGGOL_FIELD
THE NAUTILUS @ PUNGGOL,169C,PUNGGOL_FIELD,THE NAUTILUS @ PUNGGOL,169C PUNGGOL FIELD THE NAUTILUS @ PUNGGOL SINGAPORE 823169,823169,37003.66775,41725.20994,1.393621092,103.9142236,169C_PUNGGOL_FIELD
THE NAUTILUS @ PUNGGOL,170A,PUNGGOL_FIELD,THE NAUTILUS @ PUNGGOL,170A PUNGGOL FIELD THE NAUTILUS @ PUNGGOL SINGAPORE 821170,821170,37074.56423,41718.56194,1.393560948,103.9148607,170A_PUNGGOL_FIELD
THE NAUTILUS @ PUNGGOL,170B,PUNGGOL_FIELD,THE NAUTILUS @ PUNGGOL,170B PUNGGOL FIELD THE NAUTILUS @ PUNGGOL SINGAPORE 822170,822170,37056.78192,41693.88082,1.393337746,103.9147009,170B_PUNGGOL_FIELD
THE NAUTILUS @ PUNGGOL,170C,PUNGGOL_FIELD,THE NAUTILUS @ PUNGGOL,170C PUNGGOL FIELD THE NAUTILUS @ PUNGGOL SINGAPORE 823170,823170,37039.58785,41668.45856,1.393107842,103.9145464,170C_PUNGGOL_FIELD
THE SUNDIAL,170D,PUNGGOL_EAST,THE SUNDIAL,170D PUNGGOL EAST THE SUNDIAL SINGAPORE 824170,824170,37097.80787,41773.77071,1.394060228,103.9150696,170D_PUNGGOL_EAST
THE PERIWINKLE,195A,PUNGGOL_ROAD,THE PERIWINKLE,195A PUNGGOL ROAD THE PERIWINKLE SINGAPORE 821195,821195,36097.49747,42583.88657,1.401386916,103.9060812,195A_PUNGGOL_ROAD
THE PERIWINKLE,195B,PUNGGOL_ROAD,THE PERIWINKLE,195B PUNGGOL ROAD THE PERIWINKLE SINGAPORE 822195,822195,36142.50387,42582.23997,1.401372012,103.9064857,195B_PUNGGOL_ROAD
THE PERIWINKLE,195C,PUNGGOL_ROAD,THE PERIWINKLE,195C PUNGGOL ROAD THE PERIWINKLE SINGAPORE 823195,823195,36180.95553,42551.28669,1.401092071,103.9068312,195C_PUNGGOL_ROAD
THE PERIWINKLE,195D,PUNGGOL_ROAD,THE PERIWINKLE,195D PUNGGOL ROAD THE PERIWINKLE SINGAPORE 824195,824195,36210.42317,42581.79242,1.401367945,103.907096,195D_PUNGGOL_ROAD
THE PERIWINKLE,195E,PUNGGOL_ROAD,THE PERIWINKLE,195E PUNGGOL ROAD THE PERIWINKLE SINGAPORE 825195,825195,36219.46884,42620.49921,1.401717992,103.9071773,195E_PUNGGOL_ROAD
PUNGGOL SAILS,207A,PUNGGOL_PLACE,PUNGGOL SAILS,207A PUNGGOL PLACE PUNGGOL SAILS SINGAPORE 821207,821207,35533.40489,42462.21098,1.400286679,103.9010124,207A_PUNGGOL_PLACE
PUNGGOL SAILS,207B,PUNGGOL_PLACE,PUNGGOL SAILS,207B PUNGGOL PLACE PUNGGOL SAILS SINGAPORE 822207,822207,35502.56778,42466.51254,1.400325589,103.9007353,207B_PUNGGOL_PLACE
PUNGGOL SAILS,207C,PUNGGOL_PLACE,PUNGGOL SAILS,207C PUNGGOL PLACE PUNGGOL SAILS SINGAPORE 823207,823207,35459.54538,42502.78944,1.400653675,103.9003487,207C_PUNGGOL_PLACE
PUNGGOL SAILS,207D,PUNGGOL_PLACE,PUNGGOL SAILS,207D PUNGGOL PLACE PUNGGOL SAILS SINGAPORE 824207,824207,35499.57721,42535.17298,1.400946529,103.9007084,207D_PUNGGOL_PLACE
PUNGGOL SAILS,208A,PUNGGOL_PLACE,PUNGGOL SAILS,208A PUNGGOL PLACE PUNGGOL SAILS SINGAPORE 821208,821208,35505.43273,42592.30907,1.401463246,103.9007611,208A_PUNGGOL_PLACE
PUNGGOL SAILS,208B,PUNGGOL_PLACE,PUNGGOL SAILS,208B PUNGGOL PLACE PUNGGOL SAILS SINGAPORE 822208,822208,35546.18004,42581.06442,1.401361543,103.9011272,208B_PUNGGOL_PLACE
PUNGGOL SAILS,208C,PUNGGOL_PLACE,PUNGGOL SAILS,208C PUNGGOL PLACE PUNGGOL SAILS SINGAPORE 823208,823208,35548.11265,42534.58472,1.400941197,103.9011446,208C_PUNGGOL_PLACE
PUNGGOL CREST,209A,PUNGGOL_PLACE,PUNGGOL CREST,209A PUNGGOL PLACE PUNGGOL CREST SINGAPORE 821209,821209,35502.2108,42400.73065,1.399730681,103.9007321,209A_PUNGGOL_PLACE
PUNGGOL CREST,209B,PUNGGOL_PLACE,PUNGGOL CREST,209B PUNGGOL PLACE PUNGGOL CREST SINGAPORE 822209,822209,35524.84159,42400.71276,1.399730514,103.9009354,209B_PUNGGOL_PLACE
PUNGGOL CREST,209C,PUNGGOL_PLACE,PUNGGOL CREST,209C PUNGGOL PLACE PUNGGOL CREST SINGAPORE 823209,823209,35508.92206,42354.1576,1.39930949,103.9007923,209C_PUNGGOL_PLACE
PUNGGOL CREST,210A,PUNGGOL_PLACE,PUNGGOL CREST,210A PUNGGOL PLACE PUNGGOL CREST SINGAPORE 821210,821210,35465.18161,42438.05964,1.400068281,103.9003993,210A_PUNGGOL_PLACE
PUNGGOL CREST,210B,PUNGGOL_PLACE,PUNGGOL CREST,210B PUNGGOL PLACE PUNGGOL CREST SINGAPORE 822210,822210,35431.53811,42451.10253,1.400186245,103.900097,210B_PUNGGOL_PLACE
PUNGGOL CREST,210C,PUNGGOL_PLACE,PUNGGOL CREST,210C PUNGGOL PLACE PUNGGOL CREST SINGAPORE 823210,823210,35411.35563,42392.29369,1.399654404,103.8999156,210C_PUNGGOL_PLACE
PUNGGOL RIPPLES,211A,PUNGGOL_WALK,PUNGGOL RIPPLES,211A PUNGGOL WALK PUNGGOL RIPPLES SINGAPORE 821211,821211,35414.54364,42625.10315,1.401759847,103.8999443,211A_PUNGGOL_WALK
PUNGGOL RIPPLES,211B,PUNGGOL_WALK,PUNGGOL RIPPLES,211B PUNGGOL WALK PUNGGOL RIPPLES SINGAPORE 822211,822211,35411.93369,42559.86917,1.401169895,103.8999209,211B_PUNGGOL_WALK
PUNGGOL RIPPLES,211C,PUNGGOL_WALK,PUNGGOL RIPPLES,211C PUNGGOL WALK PUNGGOL RIPPLES SINGAPORE 823211,823211,35377.73456,42514.5985,1.400760493,103.8996136,211C_PUNGGOL_WALK
PUNGGOL RIPPLES,211D,PUNGGOL_WALK,PUNGGOL RIPPLES,211D PUNGGOL WALK PUNGGOL RIPPLES SINGAPORE 824211,824211,35331.54771,42533.96317,1.400935632,103.8991985,211D_PUNGGOL_WALK
PUNGGOL WAVES,212A,PUNGGOL_WALK,PUNGGOL WAVES,212A PUNGGOL WALK PUNGGOL WAVES SINGAPORE 821212,821212,35307.62946,42426.14407,1.399960561,103.8989836,212A_PUNGGOL_WALK
PUNGGOL WAVES,212B,PUNGGOL_WALK,PUNGGOL WAVES,212B PUNGGOL WALK PUNGGOL WAVES SINGAPORE 822212,822212,35363.34907,42475.20535,1.400404239,103.8994843,212B_PUNGGOL_WALK
PUNGGOL WAVES,213A,PUNGGOL_WALK,PUNGGOL WAVES,213A PUNGGOL WALK PUNGGOL WAVES SINGAPORE 821213,821213,35206.52998,42464.67025,1.400309003,103.8980751,213A_PUNGGOL_WALK
PUNGGOL WAVES,213B,PUNGGOL_WALK,PUNGGOL WAVES,213B PUNGGOL WALK PUNGGOL WAVES SINGAPORE 822213,822213,35252.10935,42510.07561,1.400719621,103.8984847,213B_PUNGGOL_WALK
PUNGGOL WAVES,213C,PUNGGOL_WALK,PUNGGOL WAVES,213C PUNGGOL WALK PUNGGOL WAVES SINGAPORE 823213,823213,35300.57194,42496.68342,1.400598495,103.8989202,213C_PUNGGOL_WALK
PUNGGOL OPAL,256A,SUMANG_WALK,PUNGGOL OPAL,256A SUMANG WALK PUNGGOL OPAL SINGAPORE 821256,821256,34942.92898,43104.07432,1.406091605,103.8957066,256A_SUMANG_WALK
PUNGGOL OPAL,256B,SUMANG_WALK,PUNGGOL OPAL,256B SUMANG WALK PUNGGOL OPAL SINGAPORE 822256,822256,34995.55665,43099.37349,1.406049079,103.8961795,256B_SUMANG_WALK
PUNGGOL OPAL,256C,SUMANG_WALK,PUNGGOL OPAL,256C SUMANG WALK PUNGGOL OPAL SINGAPORE 823256,823256,34965.61813,43027.82594,1.405402037,103.8959105,256C_SUMANG_WALK
PUNGGOL OPAL,256D,SUMANG_WALK,PUNGGOL OPAL,256D SUMANG WALK PUNGGOL OPAL SINGAPORE 824256,824256,34976.43706,42977.69868,1.404948702,103.8960077,256D_SUMANG_WALK
PUNGGOL TOPAZ,258A,PUNGGOL_FIELD,PUNGGOL TOPAZ,258A PUNGGOL FIELD PUNGGOL TOPAZ SINGAPORE 821258,821258,34974.26321,42850.60454,1.403799309,103.8959881,258A_PUNGGOL_FIELD
PUNGGOL TOPAZ,258B,PUNGGOL_FIELD,PUNGGOL TOPAZ,258B PUNGGOL FIELD PUNGGOL TOPAZ SINGAPORE 822258,822258,35026.93435,42837.66854,1.403682308,103.8964614,258B_PUNGGOL_FIELD
PUNGGOL TOPAZ,258C,PUNGGOL_FIELD,PUNGGOL TOPAZ,258C PUNGGOL FIELD PUNGGOL TOPAZ SINGAPORE 823258,823258,35016.05162,42888.49118,1.404141932,103.8963636,258C_PUNGGOL_FIELD
PUNGGOL TOPAZ,259A,PUNGGOL_FIELD,PUNGGOL TOPAZ,259A PUNGGOL FIELD PUNGGOL TOPAZ SINGAPORE 821259,821259,34925.25793,42853.26703,1.4038234,103.8955478,259A_PUNGGOL_FIELD
PUNGGOL TOPAZ,259B,PUNGGOL_FIELD,PUNGGOL TOPAZ,259B PUNGGOL FIELD PUNGGOL TOPAZ SINGAPORE 822259,822259,34890.87465,42859.33767,1.403878308,103.8952388,259B_PUNGGOL_FIELD
PUNGGOL TOPAZ,259C,PUNGGOL_FIELD,PUNGGOL TOPAZ,259C PUNGGOL FIELD PUNGGOL TOPAZ SINGAPORE 823259,823259,34938.36121,42931.85152,1.404534086,103.8956655,259C_PUNGGOL_FIELD
PUNGGOL TOPAZ,260A,PUNGGOL_WAY,PUNGGOL TOPAZ,260A PUNGGOL WAY PUNGGOL TOPAZ SINGAPORE 821260,821260,35044.1443,42960.94136,1.404797138,103.8966161,260A_PUNGGOL_WAY
PUNGGOL TOPAZ,260B,PUNGGOL_WAY,PUNGGOL TOPAZ,260B PUNGGOL WAY PUNGGOL TOPAZ SINGAPORE 822260,822260,35014.68045,42970.64403,1.404884893,103.8963513,260B_PUNGGOL_WAY
PUNGGOL TOPAZ,260C,PUNGGOL_WAY,PUNGGOL TOPAZ,260C PUNGGOL WAY PUNGGOL TOPAZ SINGAPORE 823260,823260,35021.31138,43010.54604,1.40524575,103.8964109,260C_PUNGGOL_WAY
PUNGGOL TOPAZ,261A,PUNGGOL_WAY,PUNGGOL TOPAZ,261A PUNGGOL WAY PUNGGOL TOPAZ SINGAPORE 821261,821261,35064.97388,43090.62175,1.405969915,103.8968033,261A_PUNGGOL_WAY
PUNGGOL TOPAZ,261B,PUNGGOL_WAY,PUNGGOL TOPAZ,261B PUNGGOL WAY PUNGGOL TOPAZ SINGAPORE 822261,822261,35032.14211,43095.64454,1.406015347,103.8965083,261B_PUNGGOL_WAY
PUNGGOL TOPAZ,261C,PUNGGOL_WAY,PUNGGOL TOPAZ,261C PUNGGOL WAY PUNGGOL TOPAZ SINGAPORE 823261,823261,35027.92953,43052.26334,1.405623025,103.8964704,261C_PUNGGOL_WAY
PUNGGOL EMERALD,264A,PUNGGOL_WAY,PUNGGOL EMERALD,264A PUNGGOL WAY PUNGGOL EMERALD SINGAPORE 821264,821264,35258.69706,43091.41507,1.405977041,103.8985441,264A_PUNGGOL_WAY
PUNGGOL EMERALD,265A,PUNGGOL_WAY,PUNGGOL EMERALD,265A PUNGGOL WAY PUNGGOL EMERALD SINGAPORE 821265,821265,35277.7904,43057.11827,1.405666869,103.8987156,265A_PUNGGOL_WAY
PUNGGOL EMERALD,265B,PUNGGOL_WAY,PUNGGOL EMERALD,265B PUNGGOL WAY PUNGGOL EMERALD SINGAPORE 822265,822265,35271.88727,43005.46011,1.405199693,103.8986626,265B_PUNGGOL_WAY
PUNGGOL EMERALD,265C,PUNGGOL_WAY,PUNGGOL EMERALD,265C PUNGGOL WAY PUNGGOL EMERALD SINGAPORE 823265,823265,35255.86319,42983.07897,1.40499729,103.8985186,265C_PUNGGOL_WAY
PUNGGOL EMERALD,265D,PUNGGOL_WAY,PUNGGOL EMERALD,265D PUNGGOL WAY PUNGGOL EMERALD SINGAPORE 824265,824265,35231.73173,42964.14344,1.40482605,103.8983017,265D_PUNGGOL_WAY
PUNGGOL EMERALD,266A,PUNGGOL_WAY,PUNGGOL EMERALD,266A PUNGGOL WAY PUNGGOL EMERALD SINGAPORE 821266,821266,35194.89209,43089.60813,1.405960716,103.8979707,266A_PUNGGOL_WAY
PUNGGOL EMERALD,266B,PUNGGOL_WAY,PUNGGOL EMERALD,266B PUNGGOL WAY PUNGGOL EMERALD SINGAPORE 822266,822266,35189.87877,43046.92855,1.405574739,103.8979257,266B_PUNGGOL_WAY
PUNGGOL EMERALD,266C,PUNGGOL_WAY,PUNGGOL EMERALD,266C PUNGGOL WAY PUNGGOL EMERALD SINGAPORE 823266,823266,35176.47753,43000.42688,1.405154198,103.8978052,266C_PUNGGOL_WAY
PUNGGOL EMERALD,266D,PUNGGOL_WAY,PUNGGOL EMERALD,266D PUNGGOL WAY PUNGGOL EMERALD SINGAPORE 824266,824266,35202.24724,42976.6985,1.404939601,103.8980368,266D_PUNGGOL_WAY
PUNGGOL SAPPHIRE,267A,PUNGGOL_FIELD,PUNGGOL SAPPHIRE,267A PUNGGOL FIELD PUNGGOL SAPPHIRE SINGAPORE 821267,821267,35143.0565,42934.62234,1.404559094,103.8975049,267A_PUNGGOL_FIELD
PUNGGOL SAPPHIRE,267B,PUNGGOL_FIELD,PUNGGOL SAPPHIRE,267B PUNGGOL FIELD PUNGGOL SAPPHIRE SINGAPORE 822267,822267,35190.63611,42920.65195,1.404432739,103.8979324,267B_PUNGGOL_FIELD
PUNGGOL SAPPHIRE,267C,PUNGGOL_FIELD,PUNGGOL SAPPHIRE,267C PUNGGOL FIELD PUNGGOL SAPPHIRE SINGAPORE 823267,823267,35233.68904,42904.95845,1.404290802,103.8983193,267C_PUNGGOL_FIELD
PUNGGOL SAPPHIRE,268A,PUNGGOL_FIELD,PUNGGOL SAPPHIRE,268A PUNGGOL FIELD PUNGGOL SAPPHIRE SINGAPORE 821268,821268,35131.26194,42885.12992,1.404111506,103.8973989,268A_PUNGGOL_FIELD
PUNGGOL SAPPHIRE,268B,PUNGGOL_FIELD,PUNGGOL SAPPHIRE,268B PUNGGOL FIELD PUNGGOL SAPPHIRE SINGAPORE 822268,822268,35120.26686,42848.74054,1.403782416,103.8973001,268B_PUNGGOL_FIELD
PUNGGOL SAPPHIRE,268C,PUNGGOL_FIELD,PUNGGOL SAPPHIRE,268C PUNGGOL FIELD PUNGGOL SAPPHIRE SINGAPORE 823268,823268,35191.30778,42814.65586,1.403474149,103.8979384,268C_PUNGGOL_FIELD
PUNGGOL SAPPHIRE,268D,PUNGGOL_FIELD,PUNGGOL SAPPHIRE,268D PUNGGOL FIELD PUNGGOL SAPPHIRE SINGAPORE 824268,824268,35238.10281,42796.92448,1.403313781,103.8983589,268D_PUNGGOL_FIELD
PUNGGOL SAPPHIRE,269A,PUNGGOL_FIELD,PUNGGOL SAPPHIRE,269A PUNGGOL FIELD PUNGGOL SAPPHIRE SINGAPORE 821269,821269,35306.74827,42778.7109,1.403149047,103.8989758,269A_PUNGGOL_FIELD
PUNGGOL SAPPHIRE,269B,PUNGGOL_FIELD,PUNGGOL SAPPHIRE,269B PUNGGOL FIELD PUNGGOL SAPPHIRE SINGAPORE 822269,822269,35272.32646,42811.31691,1.403443932,103.8986665,269B_PUNGGOL_FIELD
PUNGGOL SAPPHIRE,269C,PUNGGOL_FIELD,PUNGGOL SAPPHIRE,269C PUNGGOL FIELD PUNGGOL SAPPHIRE SINGAPORE 823269,823269,35257.31829,42834.32717,1.403652033,103.8985316,269C_PUNGGOL_FIELD
PUNGGOL SAPPHIRE,270A,PUNGGOL_FIELD,PUNGGOL SAPPHIRE,270A PUNGGOL FIELD PUNGGOL SAPPHIRE SINGAPORE 821270,821270,35360.07289,42870.53991,1.403979501,103.8994549,270A_PUNGGOL_FIELD
PUNGGOL SAPPHIRE,270B,PUNGGOL_FIELD,PUNGGOL SAPPHIRE,270B PUNGGOL FIELD PUNGGOL SAPPHIRE SINGAPORE 822270,822270,35312.99283,42884.75006,1.404108025,103.8990319,270B_PUNGGOL_FIELD
PUNGGOL SAPPHIRE,270C,PUNGGOL_FIELD,PUNGGOL SAPPHIRE,270C PUNGGOL FIELD PUNGGOL SAPPHIRE SINGAPORE 823270,823270,35292.95345,42907.68581,1.404315452,103.8988518,270C_PUNGGOL_FIELD
PUNGGOL RESIDENCES,271A,PUNGGOL_WALK,PUNGGOL RESIDENCES,271A PUNGGOL WALK PUNGGOL RESIDENCES SINGAPORE 821271,821271,35456.21626,42844.65733,1.403745404,103.9003189,271A_PUNGGOL_WALK
PUNGGOL RESIDENCES,271B,PUNGGOL_WALK,PUNGGOL RESIDENCES,271B PUNGGOL WALK PUNGGOL RESIDENCES SINGAPORE 822271,822271,35485.39729,42891.66869,1.40417055,103.9005811,271B_PUNGGOL_WALK
PUNGGOL RESIDENCES,271C,PUNGGOL_WALK,PUNGGOL RESIDENCES,271C PUNGGOL WALK PUNGGOL RESIDENCES SINGAPORE 823271,823271,35535.83786,42866.36054,1.403941659,103.9010343,271C_PUNGGOL_WALK
PUNGGOL RESIDENCES,271D,PUNGGOL_WALK,PUNGGOL RESIDENCES,271D PUNGGOL WALK PUNGGOL RESIDENCES SINGAPORE 824271,824271,35519.80551,42819.1077,1.403514326,103.9008903,271D_PUNGGOL_WALK
PUNGGOL RESIDENCES,272A,PUNGGOL_WALK,PUNGGOL RESIDENCES,272A PUNGGOL WALK PUNGGOL RESIDENCES SINGAPORE 821272,821272,35494.84962,42778.29738,1.403145259,103.900666,272A_PUNGGOL_WALK
PUNGGOL RESIDENCES,272B,PUNGGOL_WALK,PUNGGOL RESIDENCES,272B PUNGGOL WALK PUNGGOL RESIDENCES SINGAPORE 822272,822272,35446.93111,42794.92749,1.403295668,103.9002354,272B_PUNGGOL_WALK
PUNGGOL RESIDENCES,272C,PUNGGOL_WALK,PUNGGOL RESIDENCES,272C PUNGGOL WALK PUNGGOL RESIDENCES SINGAPORE 823272,823272,35428.209,42746.42843,1.402857065,103.9000672,272C_PUNGGOL_WALK
PUNGGOL RESIDENCES,272D,PUNGGOL_WALK,PUNGGOL RESIDENCES,272D PUNGGOL WALK PUNGGOL RESIDENCES SINGAPORE 824272,824272,35472.31247,42732.76377,1.402733475,103.9004635,272D_PUNGGOL_WALK
PUNGGOL REGALIA,273A,PUNGGOL_PLACE,PUNGGOL REGALIA,273A PUNGGOL PLACE PUNGGOL REGALIA SINGAPORE 821273,821273,35654.91308,42683.10279,1.402284312,103.9021043,273A_PUNGGOL_PLACE
PUNGGOL REGALIA,273B,PUNGGOL_PLACE,PUNGGOL REGALIA,273B PUNGGOL PLACE PUNGGOL REGALIA SINGAPORE 822273,822273,35618.68914,42647.25287,1.401960108,103.9017788,273B_PUNGGOL_PLACE
PUNGGOL REGALIA,273C,PUNGGOL_PLACE,PUNGGOL REGALIA,273C PUNGGOL PLACE PUNGGOL REGALIA SINGAPORE 823273,823273,35561.22241,42685.16803,1.402303014,103.9012624,273C_PUNGGOL_PLACE
PUNGGOL REGALIA,273D,PUNGGOL_PLACE,PUNGGOL REGALIA,273D PUNGGOL PLACE PUNGGOL REGALIA SINGAPORE 824273,824273,35564.95321,42709.51327,1.402523182,103.9012959,273D_PUNGGOL_PLACE
PUNGGOL REGALIA,274A,PUNGGOL_PLACE,PUNGGOL REGALIA,274A PUNGGOL PLACE PUNGGOL REGALIA SINGAPORE 821274,821274,35682.4922,42733.07196,1.402736207,103.9023521,274A_PUNGGOL_PLACE
PUNGGOL REGALIA,274B,PUNGGOL_PLACE,PUNGGOL REGALIA,274B PUNGGOL PLACE PUNGGOL REGALIA SINGAPORE 822274,822274,35675.28525,42775.09642,1.403116263,103.9022874,274B_PUNGGOL_PLACE
PUNGGOL REGALIA,274C,PUNGGOL_PLACE,PUNGGOL REGALIA,274C PUNGGOL PLACE PUNGGOL REGALIA SINGAPORE 823274,823274,35644.27064,42790.8157,1.403258431,103.9020087,274C_PUNGGOL_PLACE
PUNGGOL REGALIA,274D,PUNGGOL_PLACE,PUNGGOL REGALIA,274D PUNGGOL PLACE PUNGGOL REGALIA SINGAPORE 824274,824274,35608.64486,42765.96608,1.403033709,103.9016885,274D_PUNGGOL_PLACE
PUNGGOL ARCADIA,288A,PUNGGOL_PLACE,PUNGGOL ARCADIA,288A PUNGGOL PLACE PUNGGOL ARCADIA SINGAPORE 821288,821288,35758.99284,42693.46485,1.402377994,103.9030395,288A_PUNGGOL_PLACE
PUNGGOL ARCADIA,288B,PUNGGOL_PLACE,PUNGGOL ARCADIA,288B PUNGGOL PLACE PUNGGOL ARCADIA SINGAPORE 822288,822288,35787.6956,42726.33715,1.402675272,103.9032975,288B_PUNGGOL_PLACE
PUNGGOL ARCADIA,288C,PUNGGOL_PLACE,PUNGGOL ARCADIA,288C PUNGGOL PLACE PUNGGOL ARCADIA SINGAPORE 823288,823288,35816.5949,42712.58589,1.402550903,103.9035571,288C_PUNGGOL_PLACE
PUNGGOL ARCADIA,289A,PUNGGOL_PLACE,PUNGGOL ARCADIA,289A PUNGGOL PLACE PUNGGOL ARCADIA SINGAPORE 821289,821289,35712.20544,42604.39262,1.40157247,103.9026191,289A_PUNGGOL_PLACE
PUNGGOL ARCADIA,289B,PUNGGOL_PLACE,PUNGGOL ARCADIA,289B PUNGGOL PLACE PUNGGOL ARCADIA SINGAPORE 822289,822289,35768.73074,42579.08262,1.401343561,103.903127,289B_PUNGGOL_PLACE
PUNGGOL ARCADIA,289C,PUNGGOL_PLACE,PUNGGOL ARCADIA,289C PUNGGOL PLACE PUNGGOL ARCADIA SINGAPORE 823289,823289,35812.40539,42601.82701,1.401549241,103.9035195,289C_PUNGGOL_PLACE
PUNGGOL ARCADIA,289D,PUNGGOL_PLACE,PUNGGOL ARCADIA,289D PUNGGOL PLACE PUNGGOL ARCADIA SINGAPORE 824289,824289,35813.87983,42655.98842,1.402039057,103.9035327,289D_PUNGGOL_PLACE
PUNGGOL GROVE,295A,PUNGGOL_CENTRAL,PUNGGOL GROVE,295A PUNGGOL CENTRAL PUNGGOL GROVE SINGAPORE 821295,821295,35919.60039,42643.10825,1.401922544,103.9044827,295A_PUNGGOL_CENTRAL
CORALINUS,301A,PUNGGOL_CENTRAL,CORALINUS,301A PUNGGOL CENTRAL CORALINUS SINGAPORE 821301,821301,36109.15336,42891.8657,1.404172163,103.9061861,301A_PUNGGOL_CENTRAL
CORALINUS,301B,PUNGGOL_CENTRAL,CORALINUS,301B PUNGGOL CENTRAL CORALINUS SINGAPORE 822301,822301,36076.73387,42902.17646,1.404265418,103.9058947,301B_PUNGGOL_CENTRAL
CORALINUS,301C,PUNGGOL_CENTRAL,CORALINUS,301C PUNGGOL CENTRAL CORALINUS SINGAPORE 823301,823301,36051.02969,42917.23651,1.404401623,103.9056638,301C_PUNGGOL_CENTRAL
CORALINUS,301D,PUNGGOL_PLACE,CORALINUS,301D PUNGGOL PLACE CORALINUS SINGAPORE 824301,824301,36024.96557,42922.38022,1.404448148,103.9054296,301D_PUNGGOL_PLACE
CORALINUS,302A,PUNGGOL_PLACE,CORALINUS,302A PUNGGOL PLACE CORALINUS SINGAPORE 821302,821302,35915.31154,42919.6587,1.404423566,103.9044442,302A_PUNGGOL_PLACE
CORALINUS,302B,PUNGGOL_PLACE,CORALINUS,302B PUNGGOL PLACE CORALINUS SINGAPORE 822302,822302,35953.12633,42914.28202,1.404374931,103.904784,302B_PUNGGOL_PLACE
CORALINUS,302C,PUNGGOL_PLACE,CORALINUS,302C PUNGGOL PLACE CORALINUS SINGAPORE 823302,823302,35973.58803,42952.49108,1.404720474,103.9049679,302C_PUNGGOL_PLACE
CORALINUS,302D,PUNGGOL_PLACE,CORALINUS,302D PUNGGOL PLACE CORALINUS SINGAPORE 824302,824302,35999.26702,42937.43409,1.404584297,103.9051987,302D_PUNGGOL_PLACE
CORALINUS,303A,PUNGGOL_CENTRAL,CORALINUS,303A PUNGGOL CENTRAL CORALINUS SINGAPORE 821303,821303,36061.9858,42848.26794,1.403777894,103.9057622,303A_PUNGGOL_CENTRAL
CORALINUS,303B,PUNGGOL_CENTRAL,CORALINUS,303B PUNGGOL CENTRAL CORALINUS SINGAPORE 822303,822303,36036.29336,42863.63475,1.403916873,103.9055313,303B_PUNGGOL_CENTRAL
CORALINUS,303C,PUNGGOL_CENTRAL,CORALINUS,303C PUNGGOL CENTRAL CORALINUS SINGAPORE 823303,823303,36010.57033,42878.58254,1.404052062,103.9053002,303C_PUNGGOL_CENTRAL
CORALINUS,303D,PUNGGOL_PLACE,CORALINUS,303D PUNGGOL PLACE CORALINUS SINGAPORE 824303,824303,35978.8302,42899.21322,1.404238647,103.905015,303D_PUNGGOL_PLACE
TREELODGE@PUNGGOL,305A,PUNGGOL_ROAD,TREELODGE@PUNGGOL,305A PUNGGOL ROAD TREELODGE@PUNGGOL SINGAPORE 821305,821305,36167.01131,42992.15415,1.405079118,103.906706,305A_PUNGGOL_ROAD
TREELODGE@PUNGGOL,305B,PUNGGOL_ROAD,TREELODGE@PUNGGOL,305B PUNGGOL ROAD TREELODGE@PUNGGOL SINGAPORE 822305,822305,36116.34032,43022.31753,1.405351919,103.9062507,305B_PUNGGOL_ROAD
TREELODGE@PUNGGOL,305C,PUNGGOL_ROAD,TREELODGE@PUNGGOL,305C PUNGGOL ROAD TREELODGE@PUNGGOL SINGAPORE 823305,823305,36189.36667,43030.05185,1.405421845,103.9069069,305C_PUNGGOL_ROAD
TREELODGE@PUNGGOL,305D,PUNGGOL_DRIVE,TREELODGE@PUNGGOL,305D PUNGGOL DRIVE TREELODGE@PUNGGOL SINGAPORE 824305,824305,36176.46715,43075.41363,1.405832084,103.906791,305D_PUNGGOL_DRIVE
TREELODGE@PUNGGOL,306A,PUNGGOL_PLACE,TREELODGE@PUNGGOL,306A PUNGGOL PLACE TREELODGE@PUNGGOL SINGAPORE 821306,821306,36021.14729,43104.21501,1.406092596,103.9053953,306A_PUNGGOL_PLACE
TREELODGE@PUNGGOL,306B,PUNGGOL_PLACE,TREELODGE@PUNGGOL,306B PUNGGOL PLACE TREELODGE@PUNGGOL SINGAPORE 822306,822306,36063.64466,43071.01154,1.405792305,103.9057772,306B_PUNGGOL_PLACE
TREELODGE@PUNGGOL,306C,PUNGGOL_PLACE,TREELODGE@PUNGGOL,306C PUNGGOL PLACE TREELODGE@PUNGGOL SINGAPORE 823306,823306,36083.7871,43138.63403,1.406403852,103.9059582,306C_PUNGGOL_PLACE
TREELODGE@PUNGGOL,306D,PUNGGOL_DRIVE,TREELODGE@PUNGGOL,306D PUNGGOL DRIVE TREELODGE@PUNGGOL SINGAPORE 824306,824306,36137.22653,43102.9844,1.406081435,103.9064384,306D_PUNGGOL_DRIVE
WATERWAY TERRACES I,308A,PUNGGOL_WALK,WATERWAY TERRACES I,308A PUNGGOL WALK WATERWAY TERRACES I SINGAPORE 821308,821308,35521.56974,43287.93816,1.407754256,103.9009062,308A_PUNGGOL_WALK
WATERWAY TERRACES I,308B,PUNGGOL_WALK,WATERWAY TERRACES I,308B PUNGGOL WALK WATERWAY TERRACES I SINGAPORE 822308,822308,35374.07262,43289.31741,1.407766768,103.8995809,308B_PUNGGOL_WALK
WATERWAY TERRACES I,308C,PUNGGOL_WALK,WATERWAY TERRACES I,308C PUNGGOL WALK WATERWAY TERRACES I SINGAPORE 823308,823308,35317.70616,43315.87387,1.408006949,103.8990744,308C_PUNGGOL_WALK
WATERWAY TERRACES II,310A,PUNGGOL_WALK,WATERWAY TERRACES II,310A PUNGGOL WALK WATERWAY TERRACES II SINGAPORE 821310,821310,35568.34785,43392.61341,1.408700889,103.9013266,310A_PUNGGOL_WALK
WATERWAY TERRACES II,310B,PUNGGOL_WALK,WATERWAY TERRACES II,310B PUNGGOL WALK WATERWAY TERRACES II SINGAPORE 822310,822310,35509.94641,43461.36574,1.409322675,103.9008018,310B_PUNGGOL_WALK
WATERWAY TERRACES II,310C,PUNGGOL_WALK,WATERWAY TERRACES II,310C PUNGGOL WALK WATERWAY TERRACES II SINGAPORE 823310,823310,35409.40359,43504.29761,1.409710961,103.8998984,310C_PUNGGOL_WALK
WATERWAY TERRACES II,311A,PUNGGOL_WALK,WATERWAY TERRACES II,311A PUNGGOL WALK WATERWAY TERRACES II SINGAPORE 821311,821311,35627.40599,43433.11915,1.409067192,103.9018573,311A_PUNGGOL_WALK
WATERWAY TERRACES II,311B,PUNGGOL_WALK,WATERWAY TERRACES II,311B PUNGGOL WALK WATERWAY TERRACES II SINGAPORE 822311,822311,35406.1101,43564.0523,1.410251362,103.8998688,311B_PUNGGOL_WALK
PUNGGOL PARCVISTA,312A,SUMANG_LINK,PUNGGOL PARCVISTA,312A SUMANG LINK PUNGGOL PARCVISTA SINGAPORE 821312,821312,35462.07097,43626.85029,1.410819269,103.9003717,312A_SUMANG_LINK
PUNGGOL PARCVISTA,312B,SUMANG_LINK,PUNGGOL PARCVISTA,312B SUMANG LINK PUNGGOL PARCVISTA SINGAPORE 822312,822312,35489.11115,43685.879,1.411353096,103.9006147,312B_SUMANG_LINK
PUNGGOL PARCVISTA,312C,SUMANG_LINK,PUNGGOL PARCVISTA,312C SUMANG LINK PUNGGOL PARCVISTA SINGAPORE 823312,823312,35552.70264,43636.58498,1.410907282,103.9011861,312C_SUMANG_LINK
PUNGGOL PARCVISTA,313A,SUMANG_LINK,PUNGGOL PARCVISTA,313A SUMANG LINK PUNGGOL PARCVISTA SINGAPORE 821313,821313,35642.75885,43519.88217,1.409851841,103.9019953,313A_SUMANG_LINK
PUNGGOL PARCVISTA,313B,SUMANG_LINK,PUNGGOL PARCVISTA,313B SUMANG LINK PUNGGOL PARCVISTA SINGAPORE 822313,822313,35659.2618,43562.75329,1.410239547,103.9021436,313B_SUMANG_LINK
PUNGGOL PARCVISTA,313C,SUMANG_LINK,PUNGGOL PARCVISTA,313C SUMANG LINK PUNGGOL PARCVISTA SINGAPORE 823313,823313,35593.40856,43605.79863,1.410628851,103.9015519,313C_SUMANG_LINK
WATERWAY CASCADIA,314A,PUNGGOL_WAY,WATERWAY CASCADIA,314A PUNGGOL WAY WATERWAY CASCADIA SINGAPORE 821314,821314,35200.14071,43344.05936,1.408261878,103.8980179,314A_PUNGGOL_WAY
WATERWAY CASCADIA,314B,PUNGGOL_WAY,WATERWAY CASCADIA,314B PUNGGOL WAY WATERWAY CASCADIA SINGAPORE 822314,822314,35128.11874,43303.79798,1.407897787,103.8973708,314B_PUNGGOL_WAY
WATERWAY CASCADIA,315A,PUNGGOL_WAY,WATERWAY CASCADIA,315A PUNGGOL WAY WATERWAY CASCADIA SINGAPORE 821315,821315,35092.75423,43350.12645,1.408316774,103.897053,315A_PUNGGOL_WAY
WATERWAY CASCADIA,315B,PUNGGOL_WAY,WATERWAY CASCADIA,315B PUNGGOL WAY WATERWAY CASCADIA SINGAPORE 822315,822315,35020.17269,43310.23489,1.407956027,103.8964008,315B_PUNGGOL_WAY
WATERWAY CASCADIA,315C,PUNGGOL_WAY,WATERWAY CASCADIA,315C PUNGGOL WAY WATERWAY CASCADIA SINGAPORE 823315,823315,34973.92355,43298.92535,1.407853759,103.8959852,315C_PUNGGOL_WAY
WATERWAY CASCADIA,316A,PUNGGOL_WAY,WATERWAY CASCADIA,316A PUNGGOL WAY WATERWAY CASCADIA SINGAPORE 821316,821316,35243.52075,43414.80432,1.408901659,103.8984078,316A_PUNGGOL_WAY
WATERWAY CASCADIA,316B,PUNGGOL_WAY,WATERWAY CASCADIA,316B PUNGGOL WAY WATERWAY CASCADIA SINGAPORE 822316,822316,35189.85658,43419.77856,1.408946658,103.8979255,316B_PUNGGOL_WAY
WATERWAY CASCADIA,316C,PUNGGOL_WAY,WATERWAY CASCADIA,316C PUNGGOL WAY WATERWAY CASCADIA SINGAPORE 823316,823316,35089.61668,43422.99541,1.408975775,103.8970248,316C_PUNGGOL_WAY
WATERWAY CASCADIA,316D,PUNGGOL_WAY,WATERWAY CASCADIA,316D PUNGGOL WAY WATERWAY CASCADIA SINGAPORE 824316,824316,35065.94252,43402.79707,1.408793114,103.8968121,316D_PUNGGOL_WAY
PUNGGOL BAYVIEW,321A,SUMANG_WALK,PUNGGOL BAYVIEW,321A SUMANG WALK PUNGGOL BAYVIEW SINGAPORE 821321,821321,35114.59094,43618.48797,1.410743732,103.8972493,321A_SUMANG_WALK
PUNGGOL BAYVIEW,322A,SUMANG_WALK,PUNGGOL BAYVIEW,322A SUMANG WALK PUNGGOL BAYVIEW SINGAPORE 821322,821322,35090.45438,43690.44286,1.411394471,103.8970324,322A_SUMANG_WALK
PUNGGOL BAYVIEW,322B,SUMANG_WALK,PUNGGOL BAYVIEW,322B SUMANG WALK PUNGGOL BAYVIEW SINGAPORE 822322,822322,35074.2463,43637.52272,1.410915885,103.8968867,322B_SUMANG_WALK
PUNGGOL BAYVIEW,322C,SUMANG_WALK,PUNGGOL BAYVIEW,322C SUMANG WALK PUNGGOL BAYVIEW SINGAPORE 823322,823322,35040.26261,43593.64189,1.410519051,103.8965814,322C_SUMANG_WALK
PUNGGOL BAYVIEW,322D,SUMANG_WALK,PUNGGOL BAYVIEW,322D SUMANG WALK PUNGGOL BAYVIEW SINGAPORE 824322,824322,35017.87883,43540.25964,1.410036287,103.8963802,322D_SUMANG_WALK
PUNGGOL BAYVIEW,323A,SUMANG_WALK,PUNGGOL BAYVIEW,323A SUMANG WALK PUNGGOL BAYVIEW SINGAPORE 821323,821323,35224.13571,43800.67877,1.412391371,103.8982337,323A_SUMANG_WALK
PUNGGOL BAYVIEW,323B,SUMANG_WALK,PUNGGOL BAYVIEW,323B SUMANG WALK PUNGGOL BAYVIEW SINGAPORE 822323,822323,35171.59791,43763.7159,1.412057106,103.8977616,323B_SUMANG_WALK
PUNGGOL BAYVIEW,323C,SUMANG_WALK,PUNGGOL BAYVIEW,323C SUMANG WALK PUNGGOL BAYVIEW SINGAPORE 823323,823323,35153.76761,43831.12161,1.412666703,103.8976014,323C_SUMANG_WALK
PUNGGOL BAYVIEW,323D,SUMANG_WALK,PUNGGOL BAYVIEW,323D SUMANG WALK PUNGGOL BAYVIEW SINGAPORE 824323,824323,35137.5595,43778.20158,1.412188117,103.8974557,323D_SUMANG_WALK
PUNGGOL BAYVIEW,324A,SUMANG_WALK,PUNGGOL BAYVIEW,324A SUMANG WALK PUNGGOL BAYVIEW SINGAPORE 821324,821324,35237.5306,43860.12503,1.412928978,103.898354,324A_SUMANG_WALK
PUNGGOL BAYVIEW,325A,SUMANG_WALK,PUNGGOL BAYVIEW,325A SUMANG WALK PUNGGOL BAYVIEW SINGAPORE 821325,821325,35211.62883,43933.94707,1.413596604,103.8981213,325A_SUMANG_WALK
PUNGGOL BAYVIEW,325B,SUMANG_WALK,PUNGGOL BAYVIEW,325B SUMANG WALK PUNGGOL BAYVIEW SINGAPORE 822325,822325,35190.03992,43881.39701,1.413121366,103.8979273,325B_SUMANG_WALK
PUNGGOL VUE,326A,SUMANG_WALK,PUNGGOL VUE,326A SUMANG WALK PUNGGOL VUE SINGAPORE 821326,821326,35345.78413,43867.19642,1.412992901,103.8993268,326A_SUMANG_WALK
PUNGGOL VUE,326B,SUMANG_WALK,PUNGGOL VUE,326B SUMANG WALK PUNGGOL VUE SINGAPORE 822326,822326,35391.01373,43824.30992,1.41260504,103.8997332,326B_SUMANG_WALK
PUNGGOL VUE,326C,SUMANG_WALK,PUNGGOL VUE,326C SUMANG WALK PUNGGOL VUE SINGAPORE 823326,823326,35440.49199,43802.14698,1.412404594,103.9001778,326C_SUMANG_WALK
PUNGGOL VUE,326D,SUMANG_WALK,PUNGGOL VUE,326D SUMANG WALK PUNGGOL VUE SINGAPORE 824326,824326,35440.42576,43847.02686,1.412810471,103.9001772,326D_SUMANG_WALK
PUNGGOL VUE,327A,SUMANG_WALK,PUNGGOL VUE,327A SUMANG WALK PUNGGOL VUE SINGAPORE 821327,821327,35324.27991,43805.63101,1.412436132,103.8991336,327A_SUMANG_WALK
PUNGGOL VUE,327B,SUMANG_WALK,PUNGGOL VUE,327B SUMANG WALK PUNGGOL VUE SINGAPORE 822327,822327,35373.50025,43785.68011,1.412255691,103.8995758,327B_SUMANG_WALK
PUNGGOL VUE,327C,SUMANG_WALK,PUNGGOL VUE,327C SUMANG WALK PUNGGOL VUE SINGAPORE 823327,823327,35417.84215,43765.07154,1.412069303,103.8999743,327C_SUMANG_WALK
PUNGGOL POINT WOODS,431A,NORTHSHORE_DRIVE,PUNGGOL POINT WOODS,431A NORTHSHORE DRIVE PUNGGOL POINT WOODS SINGAPORE 821431,821431,36665.77526,44350.62264,1.41736446,103.9111882,431A_NORTHSHORE_DRIVE
PUNGGOL POINT WOODS,431B,NORTHSHORE_DRIVE,PUNGGOL POINT WOODS,431B NORTHSHORE DRIVE PUNGGOL POINT WOODS SINGAPORE 822431,822431,36604.45075,44380.65166,1.41763605,103.9106372,431B_NORTHSHORE_DRIVE
PUNGGOL POINT WOODS,431C,NORTHSHORE_DRIVE,PUNGGOL POINT WOODS,431C NORTHSHORE DRIVE PUNGGOL POINT WOODS SINGAPORE 823431,823431,36553.56267,44372.97297,1.417566622,103.9101799,431C_NORTHSHORE_DRIVE
PUNGGOL POINT WOODS,432A,NORTHSHORE_DRIVE,PUNGGOL POINT WOODS,432A NORTHSHORE DRIVE PUNGGOL POINT WOODS SINGAPORE 821432,821432,36599.31536,44334.83038,1.417221661,103.910591,432A_NORTHSHORE_DRIVE
PUNGGOL POINT WOODS,432B,NORTHSHORE_DRIVE,PUNGGOL POINT WOODS,432B NORTHSHORE DRIVE PUNGGOL POINT WOODS SINGAPORE 822432,822432,36671.68327,44273.93789,1.41667095,103.9112413,432B_NORTHSHORE_DRIVE
PUNGGOL POINT WOODS,433A,NORTHSHORE_DRIVE,PUNGGOL POINT WOODS,433A NORTHSHORE DRIVE PUNGGOL POINT WOODS SINGAPORE 821433,821433,36603.32699,44274.16768,1.416673049,103.910627,433A_NORTHSHORE_DRIVE
PUNGGOL POINT WOODS,433B,NORTHSHORE_DRIVE,PUNGGOL POINT WOODS,433B NORTHSHORE DRIVE PUNGGOL POINT WOODS SINGAPORE 822433,822433,36544.74397,44288.77395,1.41680516,103.9101006,433B_NORTHSHORE_DRIVE
PUNGGOL POINT CROWN,435A,NORTHSHORE_DRIVE,PUNGGOL POINT CROWN,435A NORTHSHORE DRIVE PUNGGOL POINT CROWN SINGAPORE 821435,821435,36569.6097,44464.85804,1.418397592,103.9103241,435A_NORTHSHORE_DRIVE
PUNGGOL POINT CROWN,435B,NORTHSHORE_DRIVE,PUNGGOL POINT CROWN,435B NORTHSHORE DRIVE PUNGGOL POINT CROWN SINGAPORE 822435,822435,36584.95584,44500.7206,1.418721915,103.910462,435B_NORTHSHORE_DRIVE
PUNGGOL POINT CROWN,436A,NORTHSHORE_DRIVE,PUNGGOL POINT CROWN,436A NORTHSHORE DRIVE PUNGGOL POINT CROWN SINGAPORE 821436,821436,36602.00234,44571.3968,1.41936108,103.9106152,436A_NORTHSHORE_DRIVE
PUNGGOL POINT CROWN,436B,NORTHSHORE_DRIVE,PUNGGOL POINT CROWN,436B NORTHSHORE DRIVE PUNGGOL POINT CROWN SINGAPORE 822436,822436,36638.68069,44650.04413,1.420072326,103.9109448,436B_NORTHSHORE_DRIVE
PUNGGOL POINT CROWN,437A,NORTHSHORE_DRIVE,PUNGGOL POINT CROWN,437A NORTHSHORE DRIVE PUNGGOL POINT CROWN SINGAPORE 821437,821437,36674.05204,44642.79144,1.420006724,103.9112627,437A_NORTHSHORE_DRIVE
PUNGGOL POINT CROWN,437B,NORTHSHORE_DRIVE,PUNGGOL POINT CROWN,437B NORTHSHORE DRIVE PUNGGOL POINT CROWN SINGAPORE 822437,822437,36708.82744,44594.29362,1.419568117,103.9115751,437B_NORTHSHORE_DRIVE
PUNGGOL POINT CROWN,438A,NORTHSHORE_DRIVE,PUNGGOL POINT CROWN,438A NORTHSHORE DRIVE PUNGGOL POINT CROWN SINGAPORE 821438,821438,36706.07566,44551.81332,1.419183942,103.9115504,438A_NORTHSHORE_DRIVE
PUNGGOL POINT CROWN,438B,NORTHSHORE_DRIVE,PUNGGOL POINT CROWN,438B NORTHSHORE DRIVE PUNGGOL POINT CROWN SINGAPORE 822438,822438,36694.00279,44499.03259,1.418706616,103.9114419,438B_NORTHSHORE_DRIVE
PUNGGOL POINT CROWN,438C,NORTHSHORE_DRIVE,PUNGGOL POINT CROWN,438C NORTHSHORE DRIVE PUNGGOL POINT CROWN SINGAPORE 823438,823438,36662.75915,44458.46144,1.418339715,103.9111611,438C_NORTHSHORE_DRIVE
PUNGGOL POINT COVE,442A,NEW_PUNGGOL_ROAD,PUNGGOL POINT COVE,442A NEW PUNGGOL ROAD PUNGGOL POINT COVE SINGAPORE 821442,821442,36847.6342,44601.73836,1.419635402,103.9128224,442A_NEW_PUNGGOL_ROAD
PUNGGOL POINT COVE,442B,NEW_PUNGGOL_ROAD,PUNGGOL POINT COVE,442B NEW PUNGGOL ROAD PUNGGOL POINT COVE SINGAPORE 822442,822442,36854.39483,44534.80953,1.41903012,103.9128832,442B_NEW_PUNGGOL_ROAD
PUNGGOL POINT COVE,443A,NEW_PUNGGOL_ROAD,PUNGGOL POINT COVE,443A NEW PUNGGOL ROAD PUNGGOL POINT COVE SINGAPORE 821443,821443,36795.22007,44498.3011,1.41869997,103.9123514,443A_NEW_PUNGGOL_ROAD
PUNGGOL POINT COVE,443B,NEW_PUNGGOL_ROAD,PUNGGOL POINT COVE,443B NEW PUNGGOL ROAD PUNGGOL POINT COVE SINGAPORE 822443,822443,36909.37375,44493.53341,1.418656817,103.9133772,443B_NEW_PUNGGOL_ROAD
PUNGGOL POINT COVE,445A,NEW_PUNGGOL_ROAD,PUNGGOL POINT COVE,445A NEW PUNGGOL ROAD PUNGGOL POINT COVE SINGAPORE 821445,821445,36780.48943,44429.6189,1.418078838,103.912219,445A_NEW_PUNGGOL_ROAD
PUNGGOL POINT COVE,445B,NEW_PUNGGOL_ROAD,PUNGGOL POINT COVE,445B NEW PUNGGOL ROAD PUNGGOL POINT COVE SINGAPORE 822445,822445,36926.39295,44447.67184,1.418242057,103.9135301,445B_NEW_PUNGGOL_ROAD
PUNGGOL POINT COVE,446A,PUNGGOL_WAY,PUNGGOL POINT COVE,446A PUNGGOL WAY PUNGGOL POINT COVE SINGAPORE 821446,821446,36786.39771,44248.38674,1.41643984,103.9122721,446A_PUNGGOL_WAY
PUNGGOL POINT COVE,446B,PUNGGOL_WAY,PUNGGOL POINT COVE,446B PUNGGOL WAY PUNGGOL POINT COVE SINGAPORE 822446,822446,36790.36893,44296.31165,1.416873254,103.9123078,446B_PUNGGOL_WAY
PUNGGOL POINT COVE,447A,PUNGGOL_WAY,PUNGGOL POINT COVE,447A PUNGGOL WAY PUNGGOL POINT COVE SINGAPORE 821447,821447,36799.05818,44345.9739,1.417322378,103.9123859,447A_PUNGGOL_WAY
PUNGGOL POINT COVE,448A,PUNGGOL_WAY,PUNGGOL POINT COVE,448A PUNGGOL WAY PUNGGOL POINT COVE SINGAPORE 821448,821448,36876.21435,44331.04991,1.417187387,103.9130792,448A_PUNGGOL_WAY
PUNGGOL POINT COVE,448B,PUNGGOL_WAY,PUNGGOL POINT COVE,448B PUNGGOL WAY PUNGGOL POINT COVE SINGAPORE 822448,822448,36926.98178,44254.71393,1.416497017,103.9135353,448B_PUNGGOL_WAY
PUNGGOL VISTA,601A,PUNGGOL_CENTRAL,PUNGGOL VISTA,601A PUNGGOL CENTRAL PUNGGOL VISTA SINGAPORE 821601,821601,36264.53121,42703.48428,1.402468466,103.9075822,601A_PUNGGOL_CENTRAL
PUNGGOL VISTA,601B,PUNGGOL_CENTRAL,PUNGGOL VISTA,601B PUNGGOL CENTRAL PUNGGOL VISTA SINGAPORE 822601,822601,36292.32382,42667.94149,1.402147022,103.9078319,601B_PUNGGOL_CENTRAL
PUNGGOL VISTA,601C,PUNGGOL_CENTRAL,PUNGGOL VISTA,601C PUNGGOL CENTRAL PUNGGOL VISTA SINGAPORE 823601,823601,36322.83794,42726.7626,1.40267897,103.9081061,601C_PUNGGOL_CENTRAL
PUNGGOL VISTA,601D,PUNGGOL_CENTRAL,PUNGGOL VISTA,601D PUNGGOL CENTRAL PUNGGOL VISTA SINGAPORE 824601,824601,36294.0441,42758.27974,1.402964008,103.9078474,601D_PUNGGOL_CENTRAL
PUNGGOL VISTA,602A,PUNGGOL_CENTRAL,PUNGGOL VISTA,602A PUNGGOL CENTRAL PUNGGOL VISTA SINGAPORE 821602,821602,36212.80187,42815.39252,1.403480538,103.9071174,602A_PUNGGOL_CENTRAL
PUNGGOL VISTA,602B,PUNGGOL_CENTRAL,PUNGGOL VISTA,602B PUNGGOL CENTRAL PUNGGOL VISTA SINGAPORE 822602,822602,36184.55197,42763.66783,1.403012767,103.9068635,602B_PUNGGOL_CENTRAL
PUNGGOL VISTA,602C,PUNGGOL_CENTRAL,PUNGGOL VISTA,602C PUNGGOL CENTRAL PUNGGOL VISTA SINGAPORE 823602,823602,36227.1426,42730.55548,1.402713299,103.9072462,602C_PUNGGOL_CENTRAL
PUNGGOL LODGE,603A,PUNGGOL_ROAD,PUNGGOL LODGE,603A PUNGGOL ROAD PUNGGOL LODGE SINGAPORE 821603,821603,36362.59397,42820.88062,1.403530127,103.9084634,603A_PUNGGOL_ROAD
PUNGGOL LODGE,603B,PUNGGOL_ROAD,PUNGGOL LODGE,603B PUNGGOL ROAD PUNGGOL LODGE SINGAPORE 822603,822603,36346.21954,42778.06692,1.40314294,103.9083163,603B_PUNGGOL_ROAD
PUNGGOL LODGE,603C,PUNGGOL_ROAD,PUNGGOL LODGE,603C PUNGGOL ROAD PUNGGOL LODGE SINGAPORE 823603,823603,36307.73949,42799.10338,1.403333198,103.9079705,603C_PUNGGOL_ROAD
PUNGGOL LODGE,604A,PUNGGOL_ROAD,PUNGGOL LODGE,604A PUNGGOL ROAD PUNGGOL LODGE SINGAPORE 821604,821604,36245.65443,42907.08005,1.404309717,103.9074126,604A_PUNGGOL_ROAD
PUNGGOL LODGE,604B,PUNGGOL_ROAD,PUNGGOL LODGE,604B PUNGGOL ROAD PUNGGOL LODGE SINGAPORE 822604,822604,36222.76255,42860.59125,1.403889296,103.9072069,604B_PUNGGOL_ROAD
PUNGGOL LODGE,604C,PUNGGOL_ROAD,PUNGGOL LODGE,604C PUNGGOL ROAD PUNGGOL LODGE SINGAPORE 823604,823604,36258.97295,42835.83246,1.403665376,103.9075323,604C_PUNGGOL_ROAD
DAMAI GROVE,612A,PUNGGOL_DRIVE,DAMAI GROVE,612A PUNGGOL DRIVE DAMAI GROVE SINGAPORE 821612,821612,36435.40999,42891.00845,1.404164316,103.9091177,612A_PUNGGOL_DRIVE
DAMAI GROVE,612B,PUNGGOL_DRIVE,DAMAI GROVE,612B PUNGGOL DRIVE DAMAI GROVE SINGAPORE 822612,822612,36328.50759,42976.61969,1.404938584,103.9081572,612B_PUNGGOL_DRIVE
DAMAI GROVE,612C,PUNGGOL_DRIVE,DAMAI GROVE,612C PUNGGOL DRIVE DAMAI GROVE SINGAPORE 823612,823612,36284.30132,42992.00284,1.405077716,103.9077599,612C_PUNGGOL_DRIVE
DAMAI GROVE,612D,PUNGGOL_DRIVE,DAMAI GROVE,612D PUNGGOL DRIVE DAMAI GROVE SINGAPORE 824612,824612,36269.12499,42953.16951,1.404726526,103.9076236,612D_PUNGGOL_DRIVE
DAMAI GROVE,613A,PUNGGOL_DRIVE,DAMAI GROVE,613A PUNGGOL DRIVE DAMAI GROVE SINGAPORE 821613,821613,36295.55441,42919.33368,1.40442052,103.907861,613A_PUNGGOL_DRIVE
DAMAI GROVE,613B,PUNGGOL_DRIVE,DAMAI GROVE,613B PUNGGOL DRIVE DAMAI GROVE SINGAPORE 822613,822613,36341.93386,42903.4768,1.404277103,103.9082778,613B_PUNGGOL_DRIVE
DAMAI GROVE,613C,PUNGGOL_DRIVE,DAMAI GROVE,613C PUNGGOL DRIVE DAMAI GROVE SINGAPORE 823613,823613,36384.90347,42870.98179,1.403983217,103.9086639,613C_PUNGGOL_DRIVE
DAMAI GROVE,613D,PUNGGOL_DRIVE,DAMAI GROVE,613D PUNGGOL DRIVE DAMAI GROVE SINGAPORE 824613,824613,36412.21836,42853.41601,1.403824351,103.9089093,613D_PUNGGOL_DRIVE
PUNGGOL SPRING,614A,EDGEFIELD_PLAINS,PUNGGOL SPRING,614A EDGEFIELD PLAINS PUNGGOL SPRING SINGAPORE 821614,821614,36451.69511,42826.8639,1.403584212,103.9092641,614A_EDGEFIELD_PLAINS
PUNGGOL SPRING,614B,EDGEFIELD_PLAINS,PUNGGOL SPRING,614B EDGEFIELD PLAINS PUNGGOL SPRING SINGAPORE 822614,822614,36540.00095,42751.56794,1.402903237,103.9100575,614B_EDGEFIELD_PLAINS
PUNGGOL SPRING,615A,EDGEFIELD_PLAINS,PUNGGOL SPRING,615A EDGEFIELD PLAINS PUNGGOL SPRING SINGAPORE 821615,821615,36482.51521,42857.42261,1.403860564,103.909541,615A_EDGEFIELD_PLAINS
PUNGGOL SPRING,615B,EDGEFIELD_PLAINS,PUNGGOL SPRING,615B EDGEFIELD PLAINS PUNGGOL SPRING SINGAPORE 822615,822615,36520.56182,42844.74284,1.403745882,103.9098829,615B_EDGEFIELD_PLAINS
PUNGGOL SPRING,615C,EDGEFIELD_PLAINS,PUNGGOL SPRING,615C EDGEFIELD PLAINS PUNGGOL SPRING SINGAPORE 823615,823615,36550.67931,42824.0613,1.403558837,103.9101535,615C_EDGEFIELD_PLAINS
PUNGGOL BREEZE,616A,PUNGGOL_DRIVE,PUNGGOL BREEZE,616A PUNGGOL DRIVE PUNGGOL BREEZE SINGAPORE 821616,821616,36832.58118,42572.20322,1.40128104,103.9126866,616A_PUNGGOL_DRIVE
PUNGGOL BREEZE,616B,PUNGGOL_DRIVE,PUNGGOL BREEZE,616B PUNGGOL DRIVE PUNGGOL BREEZE SINGAPORE 822616,822616,36621.11906,42754.04246,1.402925591,103.9107865,616B_PUNGGOL_DRIVE
PUNGGOL BREEZE,617A,PUNGGOL_DRIVE,PUNGGOL BREEZE,617A PUNGGOL DRIVE PUNGGOL BREEZE SINGAPORE 821617,821617,36735.18489,42688.1066,1.402329257,103.9118114,617A_PUNGGOL_DRIVE
PUNGGOL BREEZE,617B,PUNGGOL_DRIVE,PUNGGOL BREEZE,617B PUNGGOL DRIVE PUNGGOL BREEZE SINGAPORE 822617,822617,36772.62669,42669.03066,1.40215673,103.9121478,617B_PUNGGOL_DRIVE
PUNGGOL BREEZE,617C,PUNGGOL_DRIVE,PUNGGOL BREEZE,617C PUNGGOL DRIVE PUNGGOL BREEZE SINGAPORE 823617,823617,36807.0041,42645.68835,1.40194562,103.9124567,617C_PUNGGOL_DRIVE
PUNGGOL BREEZE,617D,PUNGGOL_DRIVE,PUNGGOL BREEZE,617D PUNGGOL DRIVE PUNGGOL BREEZE SINGAPORE 824617,824617,36846.09138,42609.05274,1.401614289,103.912808,617D_PUNGGOL_DRIVE
PUNGGOL BREEZE,618A,PUNGGOL_DRIVE,PUNGGOL BREEZE,618A PUNGGOL DRIVE PUNGGOL BREEZE SINGAPORE 821618,821618,36807.6739,42555.09767,1.401126351,103.9124627,618A_PUNGGOL_DRIVE
PUNGGOL BREEZE,618B,PUNGGOL_DRIVE,PUNGGOL BREEZE,618B PUNGGOL DRIVE PUNGGOL BREEZE SINGAPORE 822618,822618,36769.74757,42592.63314,1.40146582,103.912122,618B_PUNGGOL_DRIVE
PUNGGOL BREEZE,618C,PUNGGOL_DRIVE,PUNGGOL BREEZE,618C PUNGGOL DRIVE PUNGGOL BREEZE SINGAPORE 823618,823618,36735.67947,42617.01028,1.401686288,103.9118158,618C_PUNGGOL_DRIVE
PUNGGOL BREEZE,618D,PUNGGOL_DRIVE,PUNGGOL BREEZE,618D PUNGGOL DRIVE PUNGGOL BREEZE SINGAPORE 824618,824618,36696.76698,42634.1515,1.401841319,103.9114662,618D_PUNGGOL_DRIVE
PUNGGOL BREEZE,619A,PUNGGOL_DRIVE,PUNGGOL BREEZE,619A PUNGGOL DRIVE PUNGGOL BREEZE SINGAPORE 821619,821619,36692.37337,42718.62223,1.402605242,103.9114267,619A_PUNGGOL_DRIVE
PUNGGOL BREEZE,619B,PUNGGOL_DRIVE,PUNGGOL BREEZE,619B PUNGGOL DRIVE PUNGGOL BREEZE SINGAPORE 822619,822619,36649.56227,42749.13787,1.402881227,103.911042,619B_PUNGGOL_DRIVE
PUNGGOL BREEZE,619C,PUNGGOL_DRIVE,PUNGGOL BREEZE,619C PUNGGOL DRIVE PUNGGOL BREEZE SINGAPORE 823619,823619,36611.14476,42695.18274,1.402393288,103.9106968,619C_PUNGGOL_DRIVE
PUNGGOL BREEZE,619D,PUNGGOL_DRIVE,PUNGGOL BREEZE,619D PUNGGOL DRIVE PUNGGOL BREEZE SINGAPORE 824619,824619,36653.95588,42664.66719,1.402117304,103.9110815,619D_PUNGGOL_DRIVE
PUNGGOL SPECTRA,622A,PUNGGOL_CENTRAL,PUNGGOL SPECTRA,622A PUNGGOL CENTRAL PUNGGOL SPECTRA SINGAPORE 821622,821622,36650.11285,42422.5627,1.399927801,103.9110469,622A_PUNGGOL_CENTRAL
PUNGGOL SPECTRA,622B,PUNGGOL_CENTRAL,PUNGGOL SPECTRA,622B PUNGGOL CENTRAL PUNGGOL SPECTRA SINGAPORE 822622,822622,36593.83613,42468.54861,1.400343698,103.9105412,622B_PUNGGOL_CENTRAL
PUNGGOL SPECTRA,622C,PUNGGOL_CENTRAL,PUNGGOL SPECTRA,622C PUNGGOL CENTRAL PUNGGOL SPECTRA SINGAPORE 823622,823622,36639.25993,42504.51445,1.400668946,103.9109494,622C_PUNGGOL_CENTRAL
PUNGGOL SPECTRA,622D,PUNGGOL_CENTRAL,PUNGGOL SPECTRA,622D PUNGGOL CENTRAL PUNGGOL SPECTRA SINGAPORE 824622,824622,36593.35823,42489.27612,1.40053115,103.9105369,622D_PUNGGOL_CENTRAL
PUNGGOL SPECTRA,623A,PUNGGOL_CENTRAL,PUNGGOL SPECTRA,623A PUNGGOL CENTRAL PUNGGOL SPECTRA SINGAPORE 821623,821623,36744.65081,42417.81378,1.399884825,103.9118964,623A_PUNGGOL_CENTRAL
PUNGGOL SPECTRA,623B,PUNGGOL_CENTRAL,PUNGGOL SPECTRA,623B PUNGGOL CENTRAL PUNGGOL SPECTRA SINGAPORE 822623,822623,36738.0121,42359.70969,1.399359355,103.9118367,623B_PUNGGOL_CENTRAL
PUNGGOL SPECTRA,623C,PUNGGOL_CENTRAL,PUNGGOL SPECTRA,623C PUNGGOL CENTRAL PUNGGOL SPECTRA SINGAPORE 823623,823623,36695.92163,42389.95164,1.399632865,103.9114585,623C_PUNGGOL_CENTRAL
PUNGGOL SPECTRA,624A,PUNGGOL_CENTRAL,PUNGGOL SPECTRA,624A PUNGGOL CENTRAL PUNGGOL SPECTRA SINGAPORE 821624,821624,36685.92502,42525.90852,1.400862412,103.9113687,624A_PUNGGOL_CENTRAL
PUNGGOL SPECTRA,624B,PUNGGOL_CENTRAL,PUNGGOL SPECTRA,624B PUNGGOL CENTRAL PUNGGOL SPECTRA SINGAPORE 822624,822624,36724.74492,42512.32849,1.400739588,103.9117175,624B_PUNGGOL_CENTRAL
PUNGGOL SPECTRA,624C,PUNGGOL_CENTRAL,PUNGGOL SPECTRA,624C PUNGGOL CENTRAL PUNGGOL SPECTRA SINGAPORE 823624,823624,36754.28229,42484.89144,1.400491448,103.911983,624C_PUNGGOL_CENTRAL
EDGEDALE GREEN,632A,PUNGGOL_DRIVE,EDGEDALE GREEN,632A PUNGGOL DRIVE EDGEDALE GREEN SINGAPORE 821632,821632,36905.3074,42507.45719,1.400695478,103.91334,632A_PUNGGOL_DRIVE
EDGEDALE GREEN,632B,PUNGGOL_DRIVE,EDGEDALE GREEN,632B PUNGGOL DRIVE EDGEDALE GREEN SINGAPORE 822632,822632,36882.45159,42523.79882,1.400843273,103.9131347,632B_PUNGGOL_DRIVE
EDGEDALE GREEN,632C,PUNGGOL_DRIVE,EDGEDALE GREEN,632C PUNGGOL DRIVE EDGEDALE GREEN SINGAPORE 823632,823632,36859.47201,42540.03529,1.400990117,103.9129282,632C_PUNGGOL_DRIVE
EDGEDALE GREEN,633A,PUNGGOL_DRIVE,EDGEDALE GREEN,633A PUNGGOL DRIVE EDGEDALE GREEN SINGAPORE 821633,821633,36888.78135,42582.00596,1.401369675,103.9131916,633A_PUNGGOL_DRIVE
EDGEDALE GREEN,633B,PUNGGOL_DRIVE,EDGEDALE GREEN,633B PUNGGOL DRIVE EDGEDALE GREEN SINGAPORE 822633,822633,36911.64942,42565.65435,1.40122179,103.913397,633B_PUNGGOL_DRIVE
EDGEDALE GREEN,635A,PUNGGOL_DRIVE,EDGEDALE GREEN,635A PUNGGOL DRIVE EDGEDALE GREEN SINGAPORE 821635,821635,36953.97747,42535.50399,1.400949108,103.9137774,635A_PUNGGOL_DRIVE
EDGEDALE GREEN,635B,PUNGGOL_DRIVE,EDGEDALE GREEN,635B PUNGGOL DRIVE EDGEDALE GREEN SINGAPORE 822635,822635,36976.63078,42519.01097,1.400799944,103.9139809,635B_PUNGGOL_DRIVE
EDGEDALE GREEN,635C,PUNGGOL_DRIVE,EDGEDALE GREEN,635C PUNGGOL DRIVE EDGEDALE GREEN SINGAPORE 823635,823635,36999.52791,42502.90982,1.400654324,103.9141867,635C_PUNGGOL_DRIVE
EDGEDALE GREEN,636A,PUNGGOL_DRIVE,EDGEDALE GREEN,636A PUNGGOL DRIVE EDGEDALE GREEN SINGAPORE 821636,821636,36973.61091,42458.66659,1.400254213,103.9139538,636A_PUNGGOL_DRIVE
EDGEDALE GREEN,636B,PUNGGOL_DRIVE,EDGEDALE GREEN,636B PUNGGOL DRIVE EDGEDALE GREEN SINGAPORE 822636,822636,36950.9918,42475.66267,1.400407926,103.9137505,636B_PUNGGOL_DRIVE
THE MEADOWS,637A,PUNGGOL_DRIVE,THE MEADOWS,637A PUNGGOL DRIVE THE MEADOWS SINGAPORE 821637,821637,37045.19924,42396.68727,1.399693672,103.914597,637A_PUNGGOL_DRIVE
THE MEADOWS,637B,PUNGGOL_DRIVE,THE MEADOWS,637B PUNGGOL DRIVE THE MEADOWS SINGAPORE 822637,822637,37084.9806,42374.8277,1.39949597,103.9149545,637B_PUNGGOL_DRIVE
THE MEADOWS,637C,PUNGGOL_DRIVE,THE MEADOWS,637C PUNGGOL DRIVE THE MEADOWS SINGAPORE 823637,823637,37090.77453,42339.86812,1.399179807,103.9150066,637C_PUNGGOL_DRIVE
THE MEADOWS,637D,PUNGGOL_DRIVE,THE MEADOWS,637D PUNGGOL DRIVE THE MEADOWS SINGAPORE 824637,824637,37141.75659,42326.35994,1.399057628,103.9154647,637D_PUNGGOL_DRIVE
THE MEADOWS,638A,PUNGGOL_DRIVE,THE MEADOWS,638A PUNGGOL DRIVE THE MEADOWS SINGAPORE 821638,821638,37075.76718,42444.26706,1.400123957,103.9148717,638A_PUNGGOL_DRIVE
THE MEADOWS,638B,PUNGGOL_DRIVE,THE MEADOWS,638B PUNGGOL DRIVE THE MEADOWS SINGAPORE 822638,822638,37105.50532,42411.14831,1.399824434,103.915139,638B_PUNGGOL_DRIVE
THE MEADOWS,638C,PUNGGOL_DRIVE,THE MEADOWS,638C PUNGGOL DRIVE THE MEADOWS SINGAPORE 823638,823638,37133.62461,42394.77321,1.399676335,103.9153916,638C_PUNGGOL_DRIVE
THE MEADOWS,640A,PUNGGOL_DRIVE,THE MEADOWS,640A PUNGGOL DRIVE THE MEADOWS SINGAPORE 821640,821640,37171.20152,42352.51042,1.399294114,103.9157293,640A_PUNGGOL_DRIVE
THE MEADOWS,640B,PUNGGOL_DRIVE,THE MEADOWS,640B PUNGGOL DRIVE THE MEADOWS SINGAPORE 822640,822640,37196.50177,42334.53342,1.399131528,103.9159566,640B_PUNGGOL_DRIVE
THE MEADOWS,641A,PUNGGOL_DRIVE,THE MEADOWS,641A PUNGGOL DRIVE THE MEADOWS SINGAPORE 821641,821641,37312.79724,42270.76837,1.398554823,103.9170016,641A_PUNGGOL_DRIVE
THE MEADOWS,641B,PUNGGOL_DRIVE,THE MEADOWS,641B PUNGGOL DRIVE THE MEADOWS SINGAPORE 822641,822641,37270.91201,42297.00396,1.398792102,103.9166252,641B_PUNGGOL_DRIVE
THE MEADOWS,641C,PUNGGOL_DRIVE,THE MEADOWS,641C PUNGGOL DRIVE THE MEADOWS SINGAPORE 823641,823641,37242.79227,42313.37943,1.398940204,103.9163726,641C_PUNGGOL_DRIVE
THE MEADOWS,642A,PUNGGOL_DRIVE,THE MEADOWS,642A PUNGGOL DRIVE THE MEADOWS SINGAPORE 821642,821642,37280.81969,42227.41502,1.398162762,103.9167142,642A_PUNGGOL_DRIVE
THE MEADOWS,642B,PUNGGOL_DRIVE,THE MEADOWS,642B PUNGGOL DRIVE THE MEADOWS SINGAPORE 822642,822642,37229.74916,42240.8781,1.398284533,103.9162553,642B_PUNGGOL_DRIVE
THE MEADOWS,642C,PUNGGOL_DRIVE,THE MEADOWS,642C PUNGGOL DRIVE THE MEADOWS SINGAPORE 823642,823642,37223.95523,42275.83771,1.398600697,103.9162033,642C_PUNGGOL_DRIVE
THE MEADOWS,642D,PUNGGOL_DRIVE,THE MEADOWS,642D PUNGGOL DRIVE THE MEADOWS SINGAPORE 824642,824642,37184.16006,42297.59891,1.39879751,103.9158457,642D_PUNGGOL_DRIVE
EASTDALE,647A,PUNGGOL_CENTRAL,EASTDALE,647A PUNGGOL CENTRAL EASTDALE SINGAPORE 821647,821647,37149.5248,42261.08228,1.398467278,103.9155345,647A_PUNGGOL_CENTRAL
WATERWAY SUNRISE II,653A,PUNGGOL_DRIVE,WATERWAY SUNRISE II,653A PUNGGOL DRIVE WATERWAY SUNRISE II SINGAPORE 821653,821653,37569.45255,42200.28074,1.397917275,103.9193078,653A_PUNGGOL_DRIVE
WATERWAY SUNRISE II,653B,PUNGGOL_DRIVE,WATERWAY SUNRISE II,653B PUNGGOL DRIVE WATERWAY SUNRISE II SINGAPORE 822653,822653,37608.45581,42177.57098,1.397711884,103.9196583,653B_PUNGGOL_DRIVE
WATERWAY SUNRISE II,653C,PUNGGOL_DRIVE,WATERWAY SUNRISE II,653C PUNGGOL DRIVE WATERWAY SUNRISE II SINGAPORE 823653,823653,37675.04435,42126.61201,1.397251007,103.9202566,653C_PUNGGOL_DRIVE
WATERWAY SUNRISE II,654A,PUNGGOL_DRIVE,WATERWAY SUNRISE II,654A PUNGGOL DRIVE WATERWAY SUNRISE II SINGAPORE 821654,821654,37744.17554,42087.24835,1.396894994,103.9208778,654A_PUNGGOL_DRIVE
WATERWAY SUNRISE II,654B,PUNGGOL_DRIVE,WATERWAY SUNRISE II,654B PUNGGOL DRIVE WATERWAY SUNRISE II SINGAPORE 822654,822654,37758.51073,42164.05753,1.397589623,103.9210066,654B_PUNGGOL_DRIVE
WATERWAY SUNRISE II,654C,PUNGGOL_DRIVE,WATERWAY SUNRISE II,654C PUNGGOL DRIVE WATERWAY SUNRISE II SINGAPORE 823654,823654,37681.94757,42217.52199,1.398073161,103.9203187,654C_PUNGGOL_DRIVE
WATERWAY SUNRISE II,654D,PUNGGOL_DRIVE,WATERWAY SUNRISE II,654D PUNGGOL DRIVE WATERWAY SUNRISE II SINGAPORE 824654,824654,37610.07687,42267.31706,1.398523514,103.9196729,654D_PUNGGOL_DRIVE
WATERWAY SUNRISE I,655A,PUNGGOL_EAST,WATERWAY SUNRISE I,655A PUNGGOL EAST WATERWAY SUNRISE I SINGAPORE 821655,821655,37670.71242,42357.44465,1.399338574,103.9202178,655A_PUNGGOL_EAST
WATERWAY SUNRISE I,655B,PUNGGOL_EAST,WATERWAY SUNRISE I,655B PUNGGOL EAST WATERWAY SUNRISE I SINGAPORE 822655,822655,37766.47914,42296.79723,1.398790069,103.9210783,655B_PUNGGOL_EAST
WATERWAY SUNRISE I,655C,PUNGGOL_EAST,WATERWAY SUNRISE I,655C PUNGGOL EAST WATERWAY SUNRISE I SINGAPORE 823655,823655,37847.05246,42231.96642,1.398203736,103.9218023,655C_PUNGGOL_EAST
WATERWAY SUNRISE I,656A,PUNGGOL_EAST,WATERWAY SUNRISE I,656A PUNGGOL EAST WATERWAY SUNRISE I SINGAPORE 821656,821656,37735.5541,42389.73365,1.399630562,103.9208004,656A_PUNGGOL_EAST
WATERWAY SUNRISE I,656B,PUNGGOL_EAST,WATERWAY SUNRISE I,656B PUNGGOL EAST WATERWAY SUNRISE I SINGAPORE 822656,822656,37777.63623,42360.44187,1.399365644,103.9211786,656B_PUNGGOL_EAST
WATERWAY SUNRISE I,656C,PUNGGOL_EAST,WATERWAY SUNRISE I,656C PUNGGOL EAST WATERWAY SUNRISE I SINGAPORE 823656,823656,37825.29831,42326.21487,1.399056091,103.9216068,656C_PUNGGOL_EAST
WATERWAY SUNRISE I,657A,PUNGGOL_EAST,WATERWAY SUNRISE I,657A PUNGGOL EAST WATERWAY SUNRISE I SINGAPORE 821657,821657,37875.19705,42284.43306,1.398678215,103.9220552,657A_PUNGGOL_EAST
WATERWAY SUNRISE I,657B,PUNGGOL_EAST,WATERWAY SUNRISE I,657B PUNGGOL EAST WATERWAY SUNRISE I SINGAPORE 822657,822657,37921.28532,42246.88711,1.398338647,103.9224693,657B_PUNGGOL_EAST
WATERWAY SUNRAY,658A,PUNGGOL_EAST,WATERWAY SUNRAY,658A PUNGGOL EAST WATERWAY SUNRAY SINGAPORE 821658,821658,37615.32328,42450.00617,1.400175685,103.9197201,658A_PUNGGOL_EAST
WATERWAY SUNRAY,658B,PUNGGOL_EAST,WATERWAY SUNRAY,658B PUNGGOL EAST WATERWAY SUNRAY SINGAPORE 822658,822658,37541.06082,42454.11057,1.400212828,103.9190528,658B_PUNGGOL_EAST
WATERWAY SUNRAY,658C,PUNGGOL_EAST,WATERWAY SUNRAY,658C PUNGGOL EAST WATERWAY SUNRAY SINGAPORE 823658,823658,37496.25439,42491.37151,1.400549817,103.9186502,658C_PUNGGOL_EAST
WATERWAY SUNRAY,659A,PUNGGOL_EAST,WATERWAY SUNRAY,659A PUNGGOL EAST WATERWAY SUNRAY SINGAPORE 821659,821659,37619.47399,42488.94517,1.400527833,103.9197574,659A_PUNGGOL_EAST
WATERWAY SUNRAY,659B,PUNGGOL_EAST,WATERWAY SUNRAY,659B PUNGGOL EAST WATERWAY SUNRAY SINGAPORE 822659,822659,37551.80465,42513.1272,1.400746549,103.9191493,659B_PUNGGOL_EAST
WATERWAY SUNRAY,659C,PUNGGOL_EAST,WATERWAY SUNRAY,659C PUNGGOL EAST WATERWAY SUNRAY SINGAPORE 823659,823659,37549.72742,42566.07441,1.401225385,103.9191307,659C_PUNGGOL_EAST
WATERWAY SUNRAY,659D,PUNGGOL_EAST,WATERWAY SUNRAY,659D PUNGGOL EAST WATERWAY SUNRAY SINGAPORE 824659,824659,37522.23004,42533.31704,1.400929148,103.9188836,659D_PUNGGOL_EAST
WATERWAY SUNBEAM,663A,PUNGGOL_DRIVE,WATERWAY SUNBEAM,663A PUNGGOL DRIVE WATERWAY SUNBEAM SINGAPORE 821663,821663,37321.52084,42457.49168,1.400243477,103.91708,663A_PUNGGOL_DRIVE
WATERWAY SUNBEAM,663B,PUNGGOL_DRIVE,WATERWAY SUNBEAM,663B PUNGGOL DRIVE WATERWAY SUNBEAM SINGAPORE 822663,822663,37351.41531,42515.84866,1.400771226,103.9173487,663B_PUNGGOL_DRIVE
WATERWAY SUNBEAM,663C,PUNGGOL_DRIVE,WATERWAY SUNBEAM,663C PUNGGOL DRIVE WATERWAY SUNBEAM SINGAPORE 823663,823663,37382.93757,42470.98585,1.400365494,103.9176319,663C_PUNGGOL_DRIVE
WATERWAY SUNBEAM,664A,PUNGGOL_DRIVE,WATERWAY SUNBEAM,664A PUNGGOL DRIVE WATERWAY SUNBEAM SINGAPORE 821664,821664,37369.454,42367.78446,1.399432183,103.9175107,664A_PUNGGOL_DRIVE
WATERWAY SUNBEAM,664B,PUNGGOL_DRIVE,WATERWAY SUNBEAM,664B PUNGGOL DRIVE WATERWAY SUNBEAM SINGAPORE 822664,822664,37407.37882,42437.7342,1.40006477,103.9178515,664B_PUNGGOL_DRIVE
WATERWAY WOODCRESS,665A,PUNGGOL_DRIVE,WATERWAY WOODCRESS,665A PUNGGOL DRIVE WATERWAY WOODCRESS SINGAPORE 821665,821665,36931.83519,42665.82509,1.402127691,103.9135785,665A_PUNGGOL_DRIVE
WATERWAY WOODCRESS,665B,PUNGGOL_DRIVE,WATERWAY WOODCRESS,665B PUNGGOL DRIVE WATERWAY WOODCRESS SINGAPORE 822665,822665,36994.44888,42656.19409,1.402040572,103.9141411,665B_PUNGGOL_DRIVE
WATERWAY WOODCRESS,665C,PUNGGOL_DRIVE,WATERWAY WOODCRESS,665C PUNGGOL DRIVE WATERWAY WOODCRESS SINGAPORE 823665,823665,37029.8438,42595.49777,1.401491646,103.9144591,665C_PUNGGOL_DRIVE
WATERWAY WOODCRESS,666A,PUNGGOL_DRIVE,WATERWAY WOODCRESS,666A PUNGGOL DRIVE WATERWAY WOODCRESS SINGAPORE 821666,821666,37098.71285,42600.43905,1.401536312,103.915078,666A_PUNGGOL_DRIVE
WATERWAY WOODCRESS,666B,PUNGGOL_DRIVE,WATERWAY WOODCRESS,666B PUNGGOL DRIVE WATERWAY WOODCRESS SINGAPORE 822666,822666,37120.98225,42629.23507,1.401796725,103.9152781,666B_PUNGGOL_DRIVE
WATERWAY WOODCRESS,667A,PUNGGOL_DRIVE,WATERWAY WOODCRESS,667A PUNGGOL DRIVE WATERWAY WOODCRESS SINGAPORE 821667,821667,36975.5615,42718.08646,1.40260031,103.9139714,667A_PUNGGOL_DRIVE
WATERWAY WOODCRESS,667B,PUNGGOL_DRIVE,WATERWAY WOODCRESS,667B PUNGGOL DRIVE WATERWAY WOODCRESS SINGAPORE 822667,822667,37080.75401,42663.95181,1.402110703,103.9149166,667B_PUNGGOL_DRIVE
WATERWAY BROOKS,676A,PUNGGOL_DRIVE,WATERWAY BROOKS,676A PUNGGOL DRIVE WATERWAY BROOKS SINGAPORE 821676,821676,36519.19725,42964.29753,1.404827091,103.9098707,676A_PUNGGOL_DRIVE
WATERWAY BROOKS,676B,PUNGGOL_DRIVE,WATERWAY BROOKS,676B PUNGGOL DRIVE WATERWAY BROOKS SINGAPORE 822676,822676,36556.93286,42971.41066,1.404891408,103.9102097,676B_PUNGGOL_DRIVE
WATERWAY BROOKS,676C,PUNGGOL_DRIVE,WATERWAY BROOKS,676C PUNGGOL DRIVE WATERWAY BROOKS SINGAPORE 823676,823676,36598.89237,43020.06783,1.405331433,103.9105868,676C_PUNGGOL_DRIVE
WATERWAY BROOKS,676D,PUNGGOL_DRIVE,WATERWAY BROOKS,676D PUNGGOL DRIVE WATERWAY BROOKS SINGAPORE 824676,824676,36636.34258,43054.2847,1.405640867,103.9109233,676D_PUNGGOL_DRIVE
WATERWAY BROOKS,677A,PUNGGOL_DRIVE,WATERWAY BROOKS,677A PUNGGOL DRIVE WATERWAY BROOKS SINGAPORE 821677,821677,36445.01896,43015.44168,1.405289642,103.9092041,677A_PUNGGOL_DRIVE
WATERWAY BROOKS,677B,PUNGGOL_DRIVE,WATERWAY BROOKS,677B PUNGGOL DRIVE WATERWAY BROOKS SINGAPORE 822677,822677,36478.9458,43023.74046,1.405364683,103.909509,677B_PUNGGOL_DRIVE
WATERWAY BROOKS,677C,PUNGGOL_DRIVE,WATERWAY BROOKS,677C PUNGGOL DRIVE WATERWAY BROOKS SINGAPORE 823677,823677,36505.72388,43055.36048,1.405650635,103.9097496,677C_PUNGGOL_DRIVE
WATERWAY BROOKS,677D,PUNGGOL_DRIVE,WATERWAY BROOKS,677D PUNGGOL DRIVE WATERWAY BROOKS SINGAPORE 824677,824677,36551.25198,43080.77363,1.405880448,103.9101587,677D_PUNGGOL_DRIVE
WATERWAY BROOKS,678A,PUNGGOL_DRIVE,WATERWAY BROOKS,678A PUNGGOL DRIVE WATERWAY BROOKS SINGAPORE 821678,821678,36391.02841,43056.62811,1.405662132,103.908719,678A_PUNGGOL_DRIVE
WATERWAY BROOKS,678B,PUNGGOL_DRIVE,WATERWAY BROOKS,678B PUNGGOL DRIVE WATERWAY BROOKS SINGAPORE 822678,822678,36404.49942,43067.63833,1.405761701,103.90884,678B_PUNGGOL_DRIVE
WATERWAY BROOKS,678C,PUNGGOL_DRIVE,WATERWAY BROOKS,678C PUNGGOL DRIVE WATERWAY BROOKS SINGAPORE 823678,823678,36463.78553,43117.40894,1.406211791,103.9093728,678C_PUNGGOL_DRIVE
WATERWAY BROOKS,679A,PUNGGOL_DRIVE,WATERWAY BROOKS,679A PUNGGOL DRIVE WATERWAY BROOKS SINGAPORE 821679,821679,36343.0815,43084.20733,1.405911563,103.9082882,679A_PUNGGOL_DRIVE
WATERWAY BROOKS,679B,PUNGGOL_DRIVE,WATERWAY BROOKS,679B PUNGGOL DRIVE WATERWAY BROOKS SINGAPORE 822679,822679,36362.54349,43129.03152,1.40631693,103.908463,679B_PUNGGOL_DRIVE
WATERWAY BROOKS,679C,PUNGGOL_DRIVE,WATERWAY BROOKS,679C PUNGGOL DRIVE WATERWAY BROOKS SINGAPORE 823679,823679,36400.674,43139.74496,1.406413808,103.9088057,679C_PUNGGOL_DRIVE
WATERWAY BROOKS,679D,PUNGGOL_DRIVE,WATERWAY BROOKS,679D PUNGGOL DRIVE WATERWAY BROOKS SINGAPORE 824679,824679,36359.70898,43164.81187,1.406640516,103.9084376,679D_PUNGGOL_DRIVE
